{
  "type": "FeatureCollection",
  "features": [
    {
      "type": "Feature",
      "id": 104,
      "geometry": {
        "type": "Polygon",
        "coordinates": [
          [
            [
              -43.2794233,
              -22.763265
            ],
            [
              -43.2790901,
              -22.7632856
            ],
            [
              -43.2778203,
              -22.7644131
            ],
            [
              -43.2769044,
              -22.7634969
            ],
            [
              -43.2748823,
              -22.7623429
            ],
            [
              -43.2743914,
              -22.7619303
            ],
            [
              -43.2749775,
              -22.7613681
            ],
            [
              -43.2760325,
              -22.7601395
            ],
            [
              -43.2774382,
              -22.7609562
            ],
            [
              -43.2777893,
              -22.7603663
            ],
            [
              -43.2783686,
              -22.760646
            ],
            [
              -43.2788838,
              -22.7607552
            ],
            [
              -43.2794331,
              -22.7606517
            ],
            [
              -43.2800827,
              -22.7613434
            ],
            [
              -43.2797609,
              -22.7616896
            ],
            [
              -43.2794233,
              -22.763265
            ]
          ]
        ]
      },
      "properties": {
        "neighborhood": "14. Anajás"
      }
    }
  ]
}