{
  "type": "FeatureCollection",
  "features": [
    {
      "type": "Feature",
      "id": 105,
      "geometry": {
        "type": "Polygon",
        "coordinates": [
          [
            [
              -43.288811,
              -22.6810316
            ],
            [
              -43.2884984,
              -22.6810721
            ],
            [
              -43.2881649,
              -22.6810555
            ],
            [
              -43.2881251,
              -22.6815135
            ],
            [
              -43.2876056,
              -22.6814517
            ],
            [
              -43.2860224,
              -22.6812635
            ],
            [
              -43.2861036,
              -22.6807057
            ],
            [
              -43.2865233,
              -22.6807347
            ],
            [
              -43.2866047,
              -22.6800352
            ],
            [
              -43.2865367,
              -22.6799437
            ],
            [
              -43.2865083,
              -22.6798889
            ],
            [
              -43.2866774,
              -22.6799018
            ],
            [
              -43.2867756,
              -22.6792457
            ],
            [
              -43.2868441,
              -22.6791871
            ],
            [
              -43.2868519,
              -22.6790936
            ],
            [
              -43.2880021,
              -22.679216
            ],
            [
              -43.28814,
              -22.6783309
            ],
            [
              -43.2882538,
              -22.6773441
            ],
            [
              -43.2885048,
              -22.6771623
            ],
            [
              -43.2896997,
              -22.6770399
            ],
            [
              -43.2900124,
              -22.6794124
            ],
            [
              -43.2901389,
              -22.6807434
            ],
            [
              -43.288811,
              -22.6810316
            ]
          ]
        ]
      },
      "properties": {
        "neighborhood": "20.Cachopa"
      }
    }
  ]
}