{
  "type": "FeatureCollection",
  "features": [
    {
      "type": "Feature",
      "id": 95,
      "geometry": {
        "type": "Polygon",
        "coordinates": [
          [
            [
              -43.3122748,
              -22.76633
            ],
            [
              -43.3120904,
              -22.7663085
            ],
            [
              -43.3119496,
              -22.7663973
            ],
            [
              -43.3118331,
              -22.7664718
            ],
            [
              -43.3115862,
              -22.7665131
            ],
            [
              -43.3107344,
              -22.7663474
            ],
            [
              -43.310638,
              -22.7662581
            ],
            [
              -43.3105062,
              -22.7661836
            ],
            [
              -43.3099878,
              -22.7658907
            ],
            [
              -43.3098165,
              -22.7658587
            ],
            [
              -43.309647,
              -22.7658816
            ],
            [
              -43.3094684,
              -22.7659461
            ],
            [
              -43.3092682,
              -22.7660679
            ],
            [
              -43.3090021,
              -22.7661763
            ],
            [
              -43.3087014,
              -22.7660949
            ],
            [
              -43.3082264,
              -22.7658779
            ],
            [
              -43.3077621,
              -22.7656076
            ],
            [
              -43.3075926,
              -22.7655568
            ],
            [
              -43.3074494,
              -22.7654984
            ],
            [
              -43.3071093,
              -22.7641732
            ],
            [
              -43.3071243,
              -22.7641172
            ],
            [
              -43.3074339,
              -22.7642177
            ],
            [
              -43.3075473,
              -22.764291
            ],
            [
              -43.3092496,
              -22.7643501
            ],
            [
              -43.3092722,
              -22.7645931
            ],
            [
              -43.3093051,
              -22.7646084
            ],
            [
              -43.3101817,
              -22.7642879
            ],
            [
              -43.3100835,
              -22.7648086
            ],
            [
              -43.3099624,
              -22.7653693
            ],
            [
              -43.3108232,
              -22.7659962
            ],
            [
              -43.3110869,
              -22.7660962
            ],
            [
              -43.3112747,
              -22.7660823
            ],
            [
              -43.3114612,
              -22.7660127
            ],
            [
              -43.3120044,
              -22.7658337
            ],
            [
              -43.3121331,
              -22.7660833
            ],
            [
              -43.3121611,
              -22.7661724
            ],
            [
              -43.3122305,
              -22.7662616
            ],
            [
              -43.3124207,
              -22.7662868
            ],
            [
              -43.3122748,
              -22.76633
            ]
          ]
        ]
      },
      "properties": {
        "neighborhood": "4. São Sebastião (parte)"
      }
    }
  ]
}