{
  "type": "FeatureCollection",
  "features": [
    {
      "type": "Feature",
      "id": 96,
      "geometry": {
        "type": "Polygon",
        "coordinates": [
          [
            [
              -43.3047325,
              -22.7937442
            ],
            [
              -43.3044418,
              -22.7946375
            ],
            [
              -43.3044523,
              -22.7954721
            ],
            [
              -43.304619,
              -22.7964986
            ],
            [
              -43.3036793,
              -22.7966152
            ],
            [
              -43.3015336,
              -22.7966143
            ],
            [
              -43.3004513,
              -22.7944791
            ],
            [
              -43.3043758,
              -22.7928093
            ],
            [
              -43.3049899,
              -22.7932567
            ],
            [
              -43.3047325,
              -22.7937442
            ]
          ]
        ]
      },
      "properties": {
        "neighborhood": "5. Parque Brasil Novo"
      }
    }
  ]
}