{
  "type": "FeatureCollection",
  "features": [
    {
      "type": "Feature",
      "id": 99,
      "geometry": {
        "type": "Polygon",
        "coordinates": [
          [
            [
              -43.2949628,
              -22.7642989
            ],
            [
              -43.2949872,
              -22.7645302
            ],
            [
              -43.2948985,
              -22.7648911
            ],
            [
              -43.2944105,
              -22.7664942
            ],
            [
              -43.2929437,
              -22.766017
            ],
            [
              -43.2920814,
              -22.7667414
            ],
            [
              -43.2917446,
              -22.766339
            ],
            [
              -43.289446,
              -22.7654011
            ],
            [
              -43.2913303,
              -22.7649607
            ],
            [
              -43.2949009,
              -22.7641508
            ],
            [
              -43.2949628,
              -22.7642989
            ]
          ]
        ]
      },
      "properties": {
        "neighborhood": "9. Vila São Sebastião (parte)"
      }
    }
  ]
}