{
  "type": "FeatureCollection",
  "features": [
    {
      "type": "Feature",
      "id": 30,
      "geometry": {
        "type": "Polygon",
        "coordinates": [
          [
            [
              -43.2292318,
              -22.6220616
            ],
            [
              -43.2298146,
              -22.6209167
            ],
            [
              -43.2296697,
              -22.6200711
            ],
            [
              -43.2292973,
              -22.6195513
            ],
            [
              -43.2294343,
              -22.6193284
            ],
            [
              -43.2310333,
              -22.6190092
            ],
            [
              -43.2311593,
              -22.6190903
            ],
            [
              -43.2313578,
              -22.6191885
            ],
            [
              -43.2320396,
              -22.6193964
            ],
            [
              -43.2319156,
              -22.6197864
            ],
            [
              -43.2312656,
              -22.621831
            ],
            [
              -43.2312094,
              -22.6220078
            ],
            [
              -43.2292318,
              -22.6220616
            ]
          ]
        ]
      },
      "properties": {
        "neighborhood": "Av. Ângela Garzon"
      }
    }
  ]
}