{
  "type": "FeatureCollection",
  "features": [
    {
      "type": "Feature",
      "id": 44,
      "geometry": {
        "type": "Polygon",
        "coordinates": [
          [
            [
              -43.2922484,
              -22.6639639
            ],
            [
              -43.2922624,
              -22.6637416
            ],
            [
              -43.2923005,
              -22.6632179
            ],
            [
              -43.2924189,
              -22.663239
            ],
            [
              -43.2924074,
              -22.6637468
            ],
            [
              -43.2923603,
              -22.6655814
            ],
            [
              -43.2923445,
              -22.6665814
            ],
            [
              -43.2923226,
              -22.6679715
            ],
            [
              -43.2923653,
              -22.6685973
            ],
            [
              -43.2922201,
              -22.6686052
            ],
            [
              -43.2921674,
              -22.6665984
            ],
            [
              -43.2922484,
              -22.6639639
            ]
          ]
        ]
      },
      "properties": {
        "neighborhood": "Avenida do Calombé"
      }
    }
  ]
}