{
  "type": "FeatureCollection",
  "features": [
    {
      "type": "Feature",
      "id": 11,
      "geometry": {
        "type": "Polygon",
        "coordinates": [
          [
            [
              -43.2732415,
              -22.7088088
            ],
            [
              -43.273245,
              -22.7087495
            ],
            [
              -43.2733544,
              -22.7081628
            ],
            [
              -43.2734233,
              -22.707813
            ],
            [
              -43.2734226,
              -22.7078122
            ],
            [
              -43.2735318,
              -22.7072169
            ],
            [
              -43.2736734,
              -22.7064494
            ],
            [
              -43.2737721,
              -22.705939
            ],
            [
              -43.2737716,
              -22.7059389
            ],
            [
              -43.2737933,
              -22.705833
            ],
            [
              -43.2739009,
              -22.7057717
            ],
            [
              -43.2741043,
              -22.7058548
            ],
            [
              -43.2755132,
              -22.7068612
            ],
            [
              -43.2754993,
              -22.7069537
            ],
            [
              -43.2748234,
              -22.7078132
            ],
            [
              -43.2747749,
              -22.7091017
            ],
            [
              -43.2737808,
              -22.7091468
            ],
            [
              -43.2732315,
              -22.7091912
            ],
            [
              -43.2732313,
              -22.7091923
            ],
            [
              -43.2731664,
              -22.7091989
            ],
            [
              -43.273197,
              -22.709012
            ],
            [
              -43.2732415,
              -22.7088088
            ]
          ]
        ]
      },
      "properties": {
        "neighborhood": "Avenida Actura"
      }
    }
  ]
}