{
  "type": "FeatureCollection",
  "features": [
    {
      "type": "Feature",
      "id": 59,
      "geometry": {
        "type": "Polygon",
        "coordinates": [
          [
            [
              -43.2209642,
              -22.6441311
            ],
            [
              -43.2196257,
              -22.6473183
            ],
            [
              -43.2130557,
              -22.646863
            ],
            [
              -43.2118509,
              -22.6439009
            ],
            [
              -43.2118524,
              -22.6406525
            ],
            [
              -43.2115158,
              -22.6397621
            ],
            [
              -43.2105296,
              -22.6384308
            ],
            [
              -43.2144657,
              -22.6358634
            ],
            [
              -43.2184932,
              -22.6411062
            ],
            [
              -43.2183494,
              -22.6413356
            ],
            [
              -43.2199298,
              -22.6432784
            ],
            [
              -43.2202674,
              -22.6431906
            ],
            [
              -43.2209642,
              -22.6441311
            ]
          ]
        ]
      },
      "properties": {
        "neighborhood": "Comunidade Rodrigues Alves"
      }
    }
  ]
}