{
  "type": "FeatureCollection",
  "features": [
    {
      "type": "Feature",
      "id": 60,
      "geometry": {
        "type": "Polygon",
        "coordinates": [
          [
            [
              -43.2055118,
              -22.6374953
            ],
            [
              -43.2055673,
              -22.6373386
            ],
            [
              -43.2083809,
              -22.6350003
            ],
            [
              -43.2088828,
              -22.6362665
            ],
            [
              -43.209866,
              -22.6372676
            ],
            [
              -43.2105296,
              -22.6384308
            ],
            [
              -43.2115158,
              -22.6397621
            ],
            [
              -43.2118524,
              -22.6406525
            ],
            [
              -43.2118518,
              -22.6418984
            ],
            [
              -43.2118511,
              -22.6433754
            ],
            [
              -43.2115606,
              -22.6438072
            ],
            [
              -43.2110421,
              -22.6429755
            ],
            [
              -43.2098447,
              -22.6420526
            ],
            [
              -43.2089189,
              -22.6415855
            ],
            [
              -43.2078079,
              -22.640412
            ],
            [
              -43.2067339,
              -22.6391473
            ],
            [
              -43.2055118,
              -22.6374953
            ]
          ]
        ]
      },
      "properties": {
        "neighborhood": "Comunidade do Quinze"
      }
    }
  ]
}