{
  "type": "FeatureCollection",
  "features": [
    {
      "type": "Feature",
      "id": 79,
      "geometry": {
        "type": "Polygon",
        "coordinates": [
          [
            [
              -43.3162848,
              -22.7684631
            ],
            [
              -43.314841,
              -22.76849
            ],
            [
              -43.3129174,
              -22.7683335
            ],
            [
              -43.3127562,
              -22.7678571
            ],
            [
              -43.3125823,
              -22.7677073
            ],
            [
              -43.3122099,
              -22.7676109
            ],
            [
              -43.3115519,
              -22.7675358
            ],
            [
              -43.3114123,
              -22.7672929
            ],
            [
              -43.3111405,
              -22.7671081
            ],
            [
              -43.3100791,
              -22.7665419
            ],
            [
              -43.3098284,
              -22.7659187
            ],
            [
              -43.3099377,
              -22.765295
            ],
            [
              -43.313675,
              -22.7634841
            ],
            [
              -43.3138849,
              -22.7639422
            ],
            [
              -43.3149636,
              -22.7639928
            ],
            [
              -43.315089,
              -22.7648796
            ],
            [
              -43.3159789,
              -22.7655877
            ],
            [
              -43.3151047,
              -22.7664542
            ],
            [
              -43.3159094,
              -22.7669553
            ],
            [
              -43.3162848,
              -22.7684631
            ]
          ]
        ]
      },
      "properties": {
        "neighborhood": "Comunidade Morro da Lagoinha"
      }
    }
  ]
}