{
  "type": "FeatureCollection",
  "features": [
    {
      "type": "Feature",
      "id": 24,
      "geometry": {
        "type": "Polygon",
        "coordinates": [
          [
            [
              -43.2913906,
              -22.6802523
            ],
            [
              -43.2915774,
              -22.6801908
            ],
            [
              -43.2923567,
              -22.6816719
            ],
            [
              -43.2930137,
              -22.6829357
            ],
            [
              -43.2930904,
              -22.6838302
            ],
            [
              -43.2930948,
              -22.6851172
            ],
            [
              -43.2929908,
              -22.6870534
            ],
            [
              -43.293022,
              -22.6874185
            ],
            [
              -43.2930812,
              -22.6876024
            ],
            [
              -43.2932046,
              -22.6879503
            ],
            [
              -43.293357,
              -22.688227
            ],
            [
              -43.2931612,
              -22.6882717
            ],
            [
              -43.2929719,
              -22.6877614
            ],
            [
              -43.2928556,
              -22.6871115
            ],
            [
              -43.292908,
              -22.6850912
            ],
            [
              -43.2929369,
              -22.6839866
            ],
            [
              -43.2928516,
              -22.683392
            ],
            [
              -43.2928541,
              -22.6830456
            ],
            [
              -43.2926626,
              -22.6826115
            ],
            [
              -43.2924489,
              -22.6821667
            ],
            [
              -43.2918193,
              -22.6809364
            ],
            [
              -43.2914319,
              -22.6803182
            ],
            [
              -43.2913906,
              -22.6802523
            ]
          ]
        ]
      },
      "properties": {
        "neighborhood": "Comunidade da Fumacinha"
      }
    }
  ]
}