{
  "type": "FeatureCollection",
  "features": [
    {
      "type": "Feature",
      "id": 2,
      "geometry": {
        "type": "Polygon",
        "coordinates": [
          [
            [
              -43.3038007,
              -22.7472858
            ],
            [
              -43.3031305,
              -22.7471473
            ],
            [
              -43.3023951,
              -22.7469979
            ],
            [
              -43.3019929,
              -22.7469525
            ],
            [
              -43.2997409,
              -22.746837
            ],
            [
              -43.2981897,
              -22.7468485
            ],
            [
              -43.2981088,
              -22.7468535
            ],
            [
              -43.2971581,
              -22.7469121
            ],
            [
              -43.2972438,
              -22.7462883
            ],
            [
              -43.2972854,
              -22.7462333
            ],
            [
              -43.2974698,
              -22.7459882
            ],
            [
              -43.2974865,
              -22.7459722
            ],
            [
              -43.2975033,
              -22.7459563
            ],
            [
              -43.2978338,
              -22.7458444
            ],
            [
              -43.2983456,
              -22.7457641
            ],
            [
              -43.298436,
              -22.7457641
            ],
            [
              -43.2997088,
              -22.7458683
            ],
            [
              -43.3004363,
              -22.7458961
            ],
            [
              -43.300753,
              -22.7459082
            ],
            [
              -43.3007858,
              -22.7459082
            ],
            [
              -43.3015213,
              -22.7459161
            ],
            [
              -43.3015755,
              -22.7459401
            ],
            [
              -43.3020181,
              -22.7460514
            ],
            [
              -43.3024176,
              -22.7461621
            ],
            [
              -43.3027978,
              -22.7462641
            ],
            [
              -43.3028313,
              -22.7462724
            ],
            [
              -43.302873,
              -22.7462806
            ],
            [
              -43.3029314,
              -22.7462889
            ],
            [
              -43.3029563,
              -22.7462889
            ],
            [
              -43.3029898,
              -22.7463053
            ],
            [
              -43.3030315,
              -22.7463136
            ],
            [
              -43.3030814,
              -22.7463136
            ],
            [
              -43.3031147,
              -22.7463218
            ],
            [
              -43.3031814,
              -22.7463465
            ],
            [
              -43.3032064,
              -22.7463547
            ],
            [
              -43.3032479,
              -22.7463547
            ],
            [
              -43.3033062,
              -22.7463711
            ],
            [
              -43.3033477,
              -22.7463711
            ],
            [
              -43.3034141,
              -22.7463876
            ],
            [
              -43.303439,
              -22.7463876
            ],
            [
              -43.3034888,
              -22.7463958
            ],
            [
              -43.303522,
              -22.7463958
            ],
            [
              -43.3035635,
              -22.7464122
            ],
            [
              -43.3036215,
              -22.7464122
            ],
            [
              -43.3036795,
              -22.7464122
            ],
            [
              -43.3037044,
              -22.7464122
            ],
            [
              -43.3037624,
              -22.7464121
            ],
            [
              -43.3038122,
              -22.7464121
            ],
            [
              -43.3038868,
              -22.7464121
            ],
            [
              -43.3039281,
              -22.7464285
            ],
            [
              -43.3039612,
              -22.7464285
            ],
            [
              -43.3040026,
              -22.7464367
            ],
            [
              -43.3040605,
              -22.7464449
            ],
            [
              -43.3041268,
              -22.7464449
            ],
            [
              -43.3041516,
              -22.7464449
            ],
            [
              -43.3042096,
              -22.7464449
            ],
            [
              -43.3042593,
              -22.7464449
            ],
            [
              -43.3043421,
              -22.7464449
            ],
            [
              -43.3043836,
              -22.7464449
            ],
            [
              -43.3044415,
              -22.7464449
            ],
            [
              -43.3044747,
              -22.7464448
            ],
            [
              -43.3045244,
              -22.7464448
            ],
            [
              -43.3045575,
              -22.7464448
            ],
            [
              -43.3045906,
              -22.7464448
            ],
            [
              -43.3046321,
              -22.7464448
            ],
            [
              -43.3046652,
              -22.7464448
            ],
            [
              -43.3047232,
              -22.7464448
            ],
            [
              -43.3047812,
              -22.7464448
            ],
            [
              -43.3048309,
              -22.7464448
            ],
            [
              -43.3048723,
              -22.7464448
            ],
            [
              -43.304922,
              -22.7464448
            ],
            [
              -43.3049551,
              -22.7464448
            ],
            [
              -43.304976,
              -22.7464407
            ],
            [
              -43.3049968,
              -22.7464366
            ],
            [
              -43.3050299,
              -22.7464366
            ],
            [
              -43.3050634,
              -22.7464284
            ],
            [
              -43.3051131,
              -22.7464284
            ],
            [
              -43.3051297,
              -22.7464284
            ],
            [
              -43.3051877,
              -22.7464284
            ],
            [
              -43.305245,
              -22.7464448
            ],
            [
              -43.3052699,
              -22.7464448
            ],
            [
              -43.3053192,
              -22.7464529
            ],
            [
              -43.3053606,
              -22.7464529
            ],
            [
              -43.305402,
              -22.7464529
            ],
            [
              -43.3054103,
              -22.7464529
            ],
            [
              -43.3054435,
              -22.7464529
            ],
            [
              -43.3054766,
              -22.7464529
            ],
            [
              -43.305518,
              -22.7464529
            ],
            [
              -43.3055594,
              -22.7464529
            ],
            [
              -43.3055929,
              -22.7464447
            ],
            [
              -43.3056509,
              -22.7464447
            ],
            [
              -43.3057006,
              -22.7464447
            ],
            [
              -43.3057255,
              -22.7464447
            ],
            [
              -43.3058589,
              -22.7464283
            ],
            [
              -43.3059091,
              -22.7464201
            ],
            [
              -43.3059344,
              -22.7464119
            ],
            [
              -43.3059846,
              -22.7464037
            ],
            [
              -43.3060354,
              -22.7463873
            ],
            [
              -43.3060608,
              -22.7463791
            ],
            [
              -43.306111,
              -22.7463709
            ],
            [
              -43.3061453,
              -22.7463544
            ],
            [
              -43.3061873,
              -22.7463462
            ],
            [
              -43.3062216,
              -22.7463297
            ],
            [
              -43.3062475,
              -22.7463133
            ],
            [
              -43.3062996,
              -22.7462803
            ],
            [
              -43.3063595,
              -22.7462555
            ],
            [
              -43.3063939,
              -22.746239
            ],
            [
              -43.3064372,
              -22.7462141
            ],
            [
              -43.3064723,
              -22.7461893
            ],
            [
              -43.3065157,
              -22.7461644
            ],
            [
              -43.3065437,
              -22.7461228
            ],
            [
              -43.3065789,
              -22.7460979
            ],
            [
              -43.3065795,
              -22.7460895
            ],
            [
              -43.3065993,
              -22.7460478
            ],
            [
              -43.3066029,
              -22.7459977
            ],
            [
              -43.3066234,
              -22.7459474
            ],
            [
              -43.3066439,
              -22.745897
            ],
            [
              -43.3066457,
              -22.7458718
            ],
            [
              -43.3066488,
              -22.7458297
            ],
            [
              -43.3066526,
              -22.745779
            ],
            [
              -43.3066551,
              -22.7457451
            ],
            [
              -43.3066588,
              -22.7456942
            ],
            [
              -43.3066626,
              -22.7456432
            ],
            [
              -43.3066494,
              -22.7455921
            ],
            [
              -43.3066362,
              -22.7455408
            ],
            [
              -43.3066303,
              -22.7455066
            ],
            [
              -43.3066152,
              -22.7454809
            ],
            [
              -43.3066104,
              -22.7454293
            ],
            [
              -43.3065971,
              -22.7453777
            ],
            [
              -43.3065838,
              -22.7453259
            ],
            [
              -43.3065844,
              -22.7453172
            ],
            [
              -43.3065626,
              -22.7452653
            ],
            [
              -43.3065419,
              -22.7451958
            ],
            [
              -43.306537,
              -22.7451436
            ],
            [
              -43.3065394,
              -22.7451087
            ],
            [
              -43.3065418,
              -22.7450737
            ],
            [
              -43.3065369,
              -22.7450212
            ],
            [
              -43.3065406,
              -22.7449685
            ],
            [
              -43.3065449,
              -22.7449068
            ],
            [
              -43.3065381,
              -22.7448804
            ],
            [
              -43.3065332,
              -22.7448273
            ],
            [
              -43.3065264,
              -22.7448008
            ],
            [
              -43.3065048,
              -22.7447386
            ],
            [
              -43.3065085,
              -22.7446852
            ],
            [
              -43.3062275,
              -22.7443391
            ],
            [
              -43.3061239,
              -22.7442535
            ],
            [
              -43.3060202,
              -22.7441679
            ],
            [
              -43.3059011,
              -22.7439013
            ],
            [
              -43.3058889,
              -22.7438677
            ],
            [
              -43.3057414,
              -22.7435488
            ],
            [
              -43.3057192,
              -22.743542
            ],
            [
              -43.305546,
              -22.7433216
            ],
            [
              -43.305518,
              -22.7432869
            ],
            [
              -43.3052852,
              -22.7430002
            ],
            [
              -43.3052409,
              -22.742972
            ],
            [
              -43.3049725,
              -22.7426876
            ],
            [
              -43.3049435,
              -22.7426518
            ],
            [
              -43.3048556,
              -22.7424743
            ],
            [
              -43.3047677,
              -22.7422968
            ],
            [
              -43.3046817,
              -22.7419723
            ],
            [
              -43.3046673,
              -22.7419425
            ],
            [
              -43.3044604,
              -22.7414141
            ],
            [
              -43.304454,
              -22.7413758
            ],
            [
              -43.3044319,
              -22.7413297
            ],
            [
              -43.3042904,
              -22.7410355
            ],
            [
              -43.3042924,
              -22.7409808
            ],
            [
              -43.3040133,
              -22.7405699
            ],
            [
              -43.3039815,
              -22.7405379
            ],
            [
              -43.303934,
              -22.7404818
            ],
            [
              -43.3036657,
              -22.7399866
            ],
            [
              -43.303633,
              -22.7399619
            ],
            [
              -43.3034324,
              -22.7396783
            ],
            [
              -43.3032319,
              -22.7393946
            ],
            [
              -43.3032069,
              -22.7393607
            ],
            [
              -43.3031125,
              -22.7391824
            ],
            [
              -43.3029389,
              -22.7388547
            ],
            [
              -43.3026776,
              -22.7382308
            ],
            [
              -43.3023066,
              -22.7376533
            ],
            [
              -43.3021056,
              -22.7372071
            ],
            [
              -43.3019046,
              -22.7367609
            ],
            [
              -43.3018908,
              -22.7367071
            ],
            [
              -43.3011132,
              -22.7350556
            ],
            [
              -43.3011136,
              -22.7350389
            ],
            [
              -43.3009847,
              -22.7348261
            ],
            [
              -43.3004056,
              -22.7338695
            ],
            [
              -43.3003712,
              -22.7338341
            ],
            [
              -43.3001338,
              -22.733672
            ],
            [
              -43.3000124,
              -22.7336934
            ],
            [
              -43.299891,
              -22.7337147
            ],
            [
              -43.2994542,
              -22.7338168
            ],
            [
              -43.2994061,
              -22.7338168
            ],
            [
              -43.299033,
              -22.7337573
            ],
            [
              -43.2990238,
              -22.7337403
            ],
            [
              -43.2989398,
              -22.7336206
            ],
            [
              -43.2988558,
              -22.7335008
            ],
            [
              -43.298947,
              -22.7333282
            ],
            [
              -43.2992224,
              -22.7332066
            ],
            [
              -43.2996104,
              -22.7329792
            ],
            [
              -43.2996512,
              -22.732811
            ],
            [
              -43.299692,
              -22.7326429
            ],
            [
              -43.2995212,
              -22.732175
            ],
            [
              -43.2995035,
              -22.7321113
            ],
            [
              -43.2984621,
              -22.7302485
            ],
            [
              -43.2983396,
              -22.7300556
            ],
            [
              -43.2982171,
              -22.7298627
            ],
            [
              -43.2977692,
              -22.7297529
            ],
            [
              -43.2972262,
              -22.7297228
            ],
            [
              -43.2969016,
              -22.7296727
            ],
            [
              -43.2968414,
              -22.7295415
            ],
            [
              -43.2967813,
              -22.7294103
            ],
            [
              -43.2969044,
              -22.7292372
            ],
            [
              -43.2971765,
              -22.7290836
            ],
            [
              -43.2975135,
              -22.7288462
            ],
            [
              -43.2975868,
              -22.7285961
            ],
            [
              -43.2975864,
              -22.7285228
            ],
            [
              -43.2974579,
              -22.7282916
            ],
            [
              -43.296948,
              -22.727375
            ],
            [
              -43.2968907,
              -22.7272662
            ],
            [
              -43.2962318,
              -22.7260149
            ],
            [
              -43.2957322,
              -22.7250761
            ],
            [
              -43.2956302,
              -22.7248846
            ],
            [
              -43.2953703,
              -22.7243061
            ],
            [
              -43.2953543,
              -22.7237141
            ],
            [
              -43.2955,
              -22.7235133
            ],
            [
              -43.2955295,
              -22.7234567
            ],
            [
              -43.2955468,
              -22.723449
            ],
            [
              -43.2956258,
              -22.7234136
            ],
            [
              -43.296404,
              -22.7247343
            ],
            [
              -43.2974561,
              -22.726754
            ],
            [
              -43.2981028,
              -22.7279551
            ],
            [
              -43.2994299,
              -22.7304196
            ],
            [
              -43.300281,
              -22.7320835
            ],
            [
              -43.3012188,
              -22.7337836
            ],
            [
              -43.3025629,
              -22.7362201
            ],
            [
              -43.3032091,
              -22.7374168
            ],
            [
              -43.3033309,
              -22.7376337
            ],
            [
              -43.3037231,
              -22.7383322
            ],
            [
              -43.3040091,
              -22.7388416
            ],
            [
              -43.3050098,
              -22.7406557
            ],
            [
              -43.3055438,
              -22.7416236
            ],
            [
              -43.3057103,
              -22.7419226
            ],
            [
              -43.306981,
              -22.7442045
            ],
            [
              -43.3071852,
              -22.7446498
            ],
            [
              -43.3072556,
              -22.7448783
            ],
            [
              -43.3073486,
              -22.7451807
            ],
            [
              -43.3074385,
              -22.7457812
            ],
            [
              -43.3073568,
              -22.7468881
            ],
            [
              -43.3074671,
              -22.7468963
            ],
            [
              -43.3075447,
              -22.7469902
            ],
            [
              -43.3076441,
              -22.7472402
            ],
            [
              -43.3076966,
              -22.7473007
            ],
            [
              -43.3075183,
              -22.7478864
            ],
            [
              -43.307361,
              -22.7482261
            ],
            [
              -43.3067574,
              -22.7492044
            ],
            [
              -43.3062903,
              -22.7488363
            ],
            [
              -43.3054171,
              -22.7483078
            ],
            [
              -43.3038007,
              -22.7472858
            ]
          ]
        ]
      },
      "properties": {
        "neighborhood": "Dick 2"
      }
    }
  ]
}