{
  "type": "FeatureCollection",
  "features": [
    {
      "type": "Feature",
      "id": 12,
      "geometry": {
        "type": "Polygon",
        "coordinates": [
          [
            [
              -43.3267205,
              -22.800951
            ],
            [
              -43.3263406,
              -22.8007578
            ],
            [
              -43.3262386,
              -22.8007362
            ],
            [
              -43.3261633,
              -22.8007002
            ],
            [
              -43.3255876,
              -22.800562
            ],
            [
              -43.324952,
              -22.8004791
            ],
            [
              -43.324662,
              -22.8004567
            ],
            [
              -43.324661,
              -22.8003405
            ],
            [
              -43.3246605,
              -22.8002902
            ],
            [
              -43.3246593,
              -22.8001542
            ],
            [
              -43.3246647,
              -22.7995814
            ],
            [
              -43.3257053,
              -22.7995654
            ],
            [
              -43.3261901,
              -22.799558
            ],
            [
              -43.3262018,
              -22.799032
            ],
            [
              -43.3276221,
              -22.7990203
            ],
            [
              -43.328651,
              -22.7990034
            ],
            [
              -43.328844,
              -22.799
            ],
            [
              -43.3294266,
              -22.7989916
            ],
            [
              -43.3294435,
              -22.7990439
            ],
            [
              -43.329587,
              -22.7991082
            ],
            [
              -43.3297106,
              -22.799162
            ],
            [
              -43.3297496,
              -22.7989957
            ],
            [
              -43.3301645,
              -22.7989969
            ],
            [
              -43.3305148,
              -22.7989883
            ],
            [
              -43.3306864,
              -22.8004107
            ],
            [
              -43.3308095,
              -22.8014308
            ],
            [
              -43.3308639,
              -22.8020705
            ],
            [
              -43.3308734,
              -22.8021827
            ],
            [
              -43.3308744,
              -22.8021951
            ],
            [
              -43.3301886,
              -22.802174
            ],
            [
              -43.3292952,
              -22.8020635
            ],
            [
              -43.3286224,
              -22.8018765
            ],
            [
              -43.3286227,
              -22.8018754
            ],
            [
              -43.3286158,
              -22.8018746
            ],
            [
              -43.3279526,
              -22.8015914
            ],
            [
              -43.3272503,
              -22.8012275
            ],
            [
              -43.3267943,
              -22.8009788
            ],
            [
              -43.3267205,
              -22.800951
            ]
          ]
        ]
      },
      "properties": {
        "neighborhood": "Dique da Prainha"
      }
    }
  ]
}