{
  "type": "FeatureCollection",
  "features": [
    {
      "type": "Feature",
      "id": 68,
      "geometry": {
        "type": "Polygon",
        "coordinates": [
          [
            [
              -43.2457034,
              -22.6856684
            ],
            [
              -43.2444992,
              -22.6868048
            ],
            [
              -43.2430686,
              -22.6856991
            ],
            [
              -43.2421186,
              -22.6850214
            ],
            [
              -43.2414688,
              -22.6845976
            ],
            [
              -43.240959,
              -22.6843707
            ],
            [
              -43.2406531,
              -22.684022
            ],
            [
              -43.2401584,
              -22.6835238
            ],
            [
              -43.2399078,
              -22.6832627
            ],
            [
              -43.2397549,
              -22.6832555
            ],
            [
              -43.2396064,
              -22.6831379
            ],
            [
              -43.2395321,
              -22.6830318
            ],
            [
              -43.2391931,
              -22.682719
            ],
            [
              -43.2386274,
              -22.6822647
            ],
            [
              -43.2377694,
              -22.6815468
            ],
            [
              -43.2366053,
              -22.681089
            ],
            [
              -43.2365992,
              -22.6807365
            ],
            [
              -43.2366261,
              -22.6802611
            ],
            [
              -43.236584,
              -22.6798514
            ],
            [
              -43.2365529,
              -22.6794802
            ],
            [
              -43.2365147,
              -22.6792117
            ],
            [
              -43.2364839,
              -22.678979
            ],
            [
              -43.2365202,
              -22.6787286
            ],
            [
              -43.2365402,
              -22.6784204
            ],
            [
              -43.2365696,
              -22.6782725
            ],
            [
              -43.2366423,
              -22.6781266
            ],
            [
              -43.2367216,
              -22.6779628
            ],
            [
              -43.2367597,
              -22.6778586
            ],
            [
              -43.2368021,
              -22.6777438
            ],
            [
              -43.236805,
              -22.6776163
            ],
            [
              -43.2368082,
              -22.6774537
            ],
            [
              -43.2367509,
              -22.6773008
            ],
            [
              -43.2367422,
              -22.6770522
            ],
            [
              -43.2368433,
              -22.6768501
            ],
            [
              -43.2370143,
              -22.6766997
            ],
            [
              -43.2373147,
              -22.6765965
            ],
            [
              -43.2378014,
              -22.6765002
            ],
            [
              -43.2383436,
              -22.6764354
            ],
            [
              -43.2388222,
              -22.6779454
            ],
            [
              -43.2402221,
              -22.6790856
            ],
            [
              -43.2398679,
              -22.67951
            ],
            [
              -43.2404837,
              -22.6799631
            ],
            [
              -43.2406722,
              -22.6798195
            ],
            [
              -43.242039,
              -22.6808749
            ],
            [
              -43.2419538,
              -22.6811031
            ],
            [
              -43.2431714,
              -22.6822575
            ],
            [
              -43.2435573,
              -22.682701
            ],
            [
              -43.244436,
              -22.6833291
            ],
            [
              -43.2463165,
              -22.6848532
            ],
            [
              -43.2480927,
              -22.6861769
            ],
            [
              -43.2490072,
              -22.6868874
            ],
            [
              -43.2482837,
              -22.6876
            ],
            [
              -43.2457034,
              -22.6856684
            ]
          ]
        ]
      },
      "properties": {
        "neighborhood": "Favela da Coraia"
      }
    }
  ]
}