{
  "type": "FeatureCollection",
  "features": [
    {
      "type": "Feature",
      "id": 78,
      "geometry": {
        "type": "Polygon",
        "coordinates": [
          [
            [
              -43.2580431,
              -22.6714618
            ],
            [
              -43.258229,
              -22.6733599
            ],
            [
              -43.2573754,
              -22.6736579
            ],
            [
              -43.2571869,
              -22.6744143
            ],
            [
              -43.2562663,
              -22.6746801
            ],
            [
              -43.2553063,
              -22.6721601
            ],
            [
              -43.2573037,
              -22.6720015
            ],
            [
              -43.2580431,
              -22.6714618
            ]
          ]
        ]
      },
      "properties": {
        "neighborhood": "Favelinha do Posto"
      }
    }
  ]
}