{
  "type": "FeatureCollection",
  "features": [
    {
      "type": "Feature",
      "id": 55,
      "geometry": {
        "type": "Polygon",
        "coordinates": [
          [
            [
              -43.2814768,
              -22.6444282
            ],
            [
              -43.2815783,
              -22.6443775
            ],
            [
              -43.281745,
              -22.6443661
            ],
            [
              -43.2823772,
              -22.6442436
            ],
            [
              -43.2826803,
              -22.6441186
            ],
            [
              -43.2834603,
              -22.643967
            ],
            [
              -43.2836687,
              -22.6439828
            ],
            [
              -43.2836474,
              -22.644397
            ],
            [
              -43.2833283,
              -22.6444221
            ],
            [
              -43.2832411,
              -22.6444089
            ],
            [
              -43.2831483,
              -22.6444354
            ],
            [
              -43.2831502,
              -22.6444543
            ],
            [
              -43.28294,
              -22.6445055
            ],
            [
              -43.2825649,
              -22.6445737
            ],
            [
              -43.2825574,
              -22.6445547
            ],
            [
              -43.2825138,
              -22.6445623
            ],
            [
              -43.2825176,
              -22.6445793
            ],
            [
              -43.2824134,
              -22.6446059
            ],
            [
              -43.282421,
              -22.6446684
            ],
            [
              -43.2823017,
              -22.6446797
            ],
            [
              -43.282241,
              -22.6446892
            ],
            [
              -43.2822354,
              -22.6447025
            ],
            [
              -43.2818906,
              -22.6447725
            ],
            [
              -43.2817883,
              -22.6447782
            ],
            [
              -43.2813868,
              -22.6448369
            ],
            [
              -43.2811595,
              -22.6448729
            ],
            [
              -43.2811557,
              -22.6448654
            ],
            [
              -43.2810742,
              -22.6448616
            ],
            [
              -43.2810761,
              -22.64489
            ],
            [
              -43.2810042,
              -22.6449146
            ],
            [
              -43.2809928,
              -22.6449241
            ],
            [
              -43.2808735,
              -22.6449279
            ],
            [
              -43.2808451,
              -22.6449241
            ],
            [
              -43.280774,
              -22.6446554
            ],
            [
              -43.2808611,
              -22.6446352
            ],
            [
              -43.281385,
              -22.644474
            ],
            [
              -43.2814768,
              -22.6444282
            ]
          ]
        ]
      },
      "properties": {
        "neighborhood": "Favela de Santa Cruz da Serra A"
      }
    }
  ]
}