{
  "type": "FeatureCollection",
  "features": [
    {
      "type": "Feature",
      "id": 62,
      "geometry": {
        "type": "Polygon",
        "coordinates": [
          [
            [
              -43.3015746,
              -22.7300823
            ],
            [
              -43.3029005,
              -22.729615
            ],
            [
              -43.303444,
              -22.730858
            ],
            [
              -43.3025175,
              -22.7312083
            ],
            [
              -43.3046085,
              -22.7357734
            ],
            [
              -43.3041321,
              -22.7359925
            ],
            [
              -43.3043629,
              -22.7365128
            ],
            [
              -43.3038611,
              -22.7373971
            ],
            [
              -43.3036766,
              -22.7374754
            ],
            [
              -43.3035132,
              -22.7373377
            ],
            [
              -43.3031001,
              -22.7367421
            ],
            [
              -43.302406,
              -22.7354706
            ],
            [
              -43.3018985,
              -22.7344899
            ],
            [
              -43.301354,
              -22.7335352
            ],
            [
              -43.3004298,
              -22.7319178
            ],
            [
              -43.300229,
              -22.7315436
            ],
            [
              -43.2998341,
              -22.7307091
            ],
            [
              -43.2996836,
              -22.7299405
            ],
            [
              -43.3004298,
              -22.7296204
            ],
            [
              -43.3012232,
              -22.729299
            ],
            [
              -43.3015746,
              -22.7300823
            ]
          ]
        ]
      },
      "properties": {
        "neighborhood": "Favela da Beiralinha"
      }
    }
  ]
}