{
  "type": "FeatureCollection",
  "features": [
    {
      "type": "Feature",
      "id": 56,
      "geometry": {
        "type": "Polygon",
        "coordinates": [
          [
            [
              -43.278174,
              -22.6398682
            ],
            [
              -43.2782032,
              -22.6390811
            ],
            [
              -43.27824,
              -22.6380891
            ],
            [
              -43.2784435,
              -22.6381948
            ],
            [
              -43.278863,
              -22.638405
            ],
            [
              -43.2796559,
              -22.6388269
            ],
            [
              -43.2796285,
              -22.6395362
            ],
            [
              -43.2795699,
              -22.6404219
            ],
            [
              -43.279588,
              -22.6404866
            ],
            [
              -43.279564,
              -22.6404865
            ],
            [
              -43.2793528,
              -22.640485
            ],
            [
              -43.279227,
              -22.6404262
            ],
            [
              -43.2789089,
              -22.6401851
            ],
            [
              -43.2787656,
              -22.6400044
            ],
            [
              -43.2784464,
              -22.6399212
            ],
            [
              -43.278174,
              -22.6398682
            ]
          ]
        ]
      },
      "properties": {
        "neighborhood": "Favela de Santa Cruz da Serra A"
      }
    }
  ]
}