{
  "type": "FeatureCollection",
  "features": [
    {
      "type": "Feature",
      "id": 31,
      "geometry": {
        "type": "Polygon",
        "coordinates": [
          [
            [
              -43.3147235,
              -22.730575
            ],
            [
              -43.3146983,
              -22.7305425
            ],
            [
              -43.3146882,
              -22.7305132
            ],
            [
              -43.3146084,
              -22.7304284
            ],
            [
              -43.3146062,
              -22.730426
            ],
            [
              -43.3145224,
              -22.7303593
            ],
            [
              -43.3143942,
              -22.7303217
            ],
            [
              -43.3141308,
              -22.7301131
            ],
            [
              -43.3139014,
              -22.7299561
            ],
            [
              -43.313871,
              -22.7299353
            ],
            [
              -43.3138223,
              -22.7299178
            ],
            [
              -43.3137988,
              -22.7298458
            ],
            [
              -43.3137686,
              -22.7297962
            ],
            [
              -43.3138026,
              -22.729778
            ],
            [
              -43.3139811,
              -22.729653
            ],
            [
              -43.3140419,
              -22.7296378
            ],
            [
              -43.3141001,
              -22.7296549
            ],
            [
              -43.3141514,
              -22.729684
            ],
            [
              -43.3142088,
              -22.7297184
            ],
            [
              -43.3143736,
              -22.7298635
            ],
            [
              -43.314408,
              -22.7298121
            ],
            [
              -43.3145487,
              -22.7297686
            ],
            [
              -43.3148696,
              -22.7296694
            ],
            [
              -43.3149076,
              -22.7296862
            ],
            [
              -43.314914,
              -22.7296782
            ],
            [
              -43.3149914,
              -22.7295806
            ],
            [
              -43.3150137,
              -22.7295527
            ],
            [
              -43.3164747,
              -22.7298786
            ],
            [
              -43.3165098,
              -22.7299076
            ],
            [
              -43.3165186,
              -22.7299148
            ],
            [
              -43.3165233,
              -22.7299187
            ],
            [
              -43.3165414,
              -22.7299336
            ],
            [
              -43.3172013,
              -22.7297451
            ],
            [
              -43.3173544,
              -22.7300397
            ],
            [
              -43.3173701,
              -22.7301496
            ],
            [
              -43.317378,
              -22.7308212
            ],
            [
              -43.316821,
              -22.7311729
            ],
            [
              -43.3166361,
              -22.7312877
            ],
            [
              -43.3166541,
              -22.7313653
            ],
            [
              -43.3166883,
              -22.7315738
            ],
            [
              -43.316743,
              -22.7316831
            ],
            [
              -43.3169275,
              -22.7317754
            ],
            [
              -43.3171292,
              -22.7317925
            ],
            [
              -43.3172864,
              -22.7317378
            ],
            [
              -43.3171376,
              -22.7319052
            ],
            [
              -43.3169767,
              -22.7321314
            ],
            [
              -43.3168241,
              -22.7322664
            ],
            [
              -43.3167242,
              -22.7323075
            ],
            [
              -43.3166156,
              -22.7323075
            ],
            [
              -43.316507,
              -22.7323075
            ],
            [
              -43.3161078,
              -22.7322136
            ],
            [
              -43.3158612,
              -22.7321725
            ],
            [
              -43.3156733,
              -22.732196
            ],
            [
              -43.3155383,
              -22.7322723
            ],
            [
              -43.3149709,
              -22.7326812
            ],
            [
              -43.3149691,
              -22.7326811
            ],
            [
              -43.3144941,
              -22.7325691
            ],
            [
              -43.3146025,
              -22.7321547
            ],
            [
              -43.3146313,
              -22.7320586
            ],
            [
              -43.3147172,
              -22.7317722
            ],
            [
              -43.3147113,
              -22.7316861
            ],
            [
              -43.3146708,
              -22.7316541
            ],
            [
              -43.3146724,
              -22.7316391
            ],
            [
              -43.3147259,
              -22.7311584
            ],
            [
              -43.31473,
              -22.7311219
            ],
            [
              -43.3147235,
              -22.730575
            ]
          ]
        ]
      },
      "properties": {
        "neighborhood": "Favela do Celta"
      }
    }
  ]
}