{
  "type": "FeatureCollection",
  "features": [
    {
      "type": "Feature",
      "id": 76,
      "geometry": {
        "type": "Polygon",
        "coordinates": [
          [
            [
              -43.2600587,
              -22.6703383
            ],
            [
              -43.2601044,
              -22.6713164
            ],
            [
              -43.2587702,
              -22.6713692
            ],
            [
              -43.2578279,
              -22.6714768
            ],
            [
              -43.2572297,
              -22.6719933
            ],
            [
              -43.2534253,
              -22.6721161
            ],
            [
              -43.2522362,
              -22.6722031
            ],
            [
              -43.2498202,
              -22.6723111
            ],
            [
              -43.2477674,
              -22.6724151
            ],
            [
              -43.2476146,
              -22.6722676
            ],
            [
              -43.2476421,
              -22.6720504
            ],
            [
              -43.2477674,
              -22.6718676
            ],
            [
              -43.2479871,
              -22.6716134
            ],
            [
              -43.2486548,
              -22.6703246
            ],
            [
              -43.2508047,
              -22.6712598
            ],
            [
              -43.2513618,
              -22.6707781
            ],
            [
              -43.2514122,
              -22.6702868
            ],
            [
              -43.2600587,
              -22.6703383
            ]
          ]
        ]
      },
      "properties": {
        "neighborhood": "Favela do Canal"
      }
    }
  ]
}