{
  "type": "FeatureCollection",
  "features": [
    {
      "type": "Feature",
      "id": 57,
      "geometry": {
        "type": "Polygon",
        "coordinates": [
          [
            [
              -43.2736271,
              -22.6478321
            ],
            [
              -43.2737162,
              -22.6477213
            ],
            [
              -43.2739992,
              -22.6475798
            ],
            [
              -43.27405,
              -22.6475398
            ],
            [
              -43.2742931,
              -22.6474237
            ],
            [
              -43.2745036,
              -22.647304
            ],
            [
              -43.2747431,
              -22.6471879
            ],
            [
              -43.2747032,
              -22.647108
            ],
            [
              -43.2748738,
              -22.6470572
            ],
            [
              -43.2747613,
              -22.6467742
            ],
            [
              -43.2748157,
              -22.6467125
            ],
            [
              -43.2749463,
              -22.6466798
            ],
            [
              -43.2750044,
              -22.6467379
            ],
            [
              -43.2750588,
              -22.646854
            ],
            [
              -43.2751604,
              -22.6468105
            ],
            [
              -43.2751858,
              -22.6468395
            ],
            [
              -43.2752657,
              -22.6468177
            ],
            [
              -43.2752584,
              -22.6467742
            ],
            [
              -43.2754072,
              -22.6467161
            ],
            [
              -43.2753963,
              -22.6466544
            ],
            [
              -43.2755651,
              -22.6465689
            ],
            [
              -43.2757456,
              -22.64688
            ],
            [
              -43.2757793,
              -22.6469381
            ],
            [
              -43.2758001,
              -22.646974
            ],
            [
              -43.2737522,
              -22.6480591
            ],
            [
              -43.2727004,
              -22.6486316
            ],
            [
              -43.2695843,
              -22.6501224
            ],
            [
              -43.2695757,
              -22.6501082
            ],
            [
              -43.26902,
              -22.6491817
            ],
            [
              -43.2694777,
              -22.6489514
            ],
            [
              -43.2695358,
              -22.6488898
            ],
            [
              -43.2696447,
              -22.6488498
            ],
            [
              -43.2698769,
              -22.6488136
            ],
            [
              -43.2702035,
              -22.648614
            ],
            [
              -43.2705119,
              -22.6490857
            ],
            [
              -43.2714119,
              -22.648614
            ],
            [
              -43.2713901,
              -22.6485849
            ],
            [
              -43.2716369,
              -22.6484688
            ],
            [
              -43.2718836,
              -22.6486067
            ],
            [
              -43.2721159,
              -22.6484942
            ],
            [
              -43.2721921,
              -22.6486103
            ],
            [
              -43.2722284,
              -22.6486793
            ],
            [
              -43.2726094,
              -22.6484724
            ],
            [
              -43.2729686,
              -22.6482583
            ],
            [
              -43.2735783,
              -22.6478664
            ],
            [
              -43.2736271,
              -22.6478321
            ]
          ]
        ]
      },
      "properties": {
        "neighborhood": "Favela de Santa Cruz da Serra A"
      }
    }
  ]
}