{
  "type": "FeatureCollection",
  "features": [
    {
      "type": "Feature",
      "id": 72,
      "geometry": {
        "type": "Polygon",
        "coordinates": [
          [
            [
              -43.3210083,
              -22.7707718
            ],
            [
              -43.3211083,
              -22.7709547
            ],
            [
              -43.3208136,
              -22.7710679
            ],
            [
              -43.3205208,
              -22.7706971
            ],
            [
              -43.3197174,
              -22.7702925
            ],
            [
              -43.3196137,
              -22.770093
            ],
            [
              -43.319311,
              -22.7700543
            ],
            [
              -43.3191223,
              -22.7701725
            ],
            [
              -43.3190179,
              -22.7701518
            ],
            [
              -43.3187697,
              -22.7701815
            ],
            [
              -43.3187043,
              -22.7699791
            ],
            [
              -43.3187075,
              -22.769716
            ],
            [
              -43.3188905,
              -22.7693729
            ],
            [
              -43.3172706,
              -22.7690418
            ],
            [
              -43.3161584,
              -22.7689542
            ],
            [
              -43.3148887,
              -22.7688177
            ],
            [
              -43.314841,
              -22.76849
            ],
            [
              -43.3162848,
              -22.7684631
            ],
            [
              -43.3159317,
              -22.7670449
            ],
            [
              -43.3162512,
              -22.7669536
            ],
            [
              -43.3166901,
              -22.7667674
            ],
            [
              -43.3173196,
              -22.7665023
            ],
            [
              -43.3180394,
              -22.7662582
            ],
            [
              -43.3185956,
              -22.7652809
            ],
            [
              -43.3184264,
              -22.7651079
            ],
            [
              -43.318469,
              -22.7650485
            ],
            [
              -43.3195745,
              -22.7649193
            ],
            [
              -43.3232694,
              -22.7674469
            ],
            [
              -43.3235248,
              -22.7686808
            ],
            [
              -43.323883,
              -22.7708238
            ],
            [
              -43.3237441,
              -22.7708159
            ],
            [
              -43.3223037,
              -22.7698802
            ],
            [
              -43.3210083,
              -22.7707718
            ]
          ]
        ]
      },
      "properties": {
        "neighborhood": "Favelinha de Caxias"
      }
    }
  ]
}