{
  "type": "FeatureCollection",
  "features": [
    {
      "type": "Feature",
      "id": 67,
      "geometry": {
        "type": "Polygon",
        "coordinates": [
          [
            [
              -43.248266,
              -22.6922371
            ],
            [
              -43.2466576,
              -22.6912458
            ],
            [
              -43.2455297,
              -22.6914999
            ],
            [
              -43.2446032,
              -22.6909166
            ],
            [
              -43.2439144,
              -22.6912604
            ],
            [
              -43.241629,
              -22.6912895
            ],
            [
              -43.2416173,
              -22.6895605
            ],
            [
              -43.2409737,
              -22.6895575
            ],
            [
              -43.2409312,
              -22.6872268
            ],
            [
              -43.240568,
              -22.6869345
            ],
            [
              -43.2415831,
              -22.6856376
            ],
            [
              -43.2420353,
              -22.6850313
            ],
            [
              -43.2444967,
              -22.6868399
            ],
            [
              -43.2456906,
              -22.6856618
            ],
            [
              -43.2483146,
              -22.6876532
            ],
            [
              -43.2490425,
              -22.6869152
            ],
            [
              -43.2500967,
              -22.6877551
            ],
            [
              -43.2507194,
              -22.6871377
            ],
            [
              -43.2513401,
              -22.6865476
            ],
            [
              -43.2521665,
              -22.6857405
            ],
            [
              -43.2524669,
              -22.6854478
            ],
            [
              -43.2527212,
              -22.6856556
            ],
            [
              -43.2513025,
              -22.6871776
            ],
            [
              -43.2506705,
              -22.6878202
            ],
            [
              -43.2498947,
              -22.6887042
            ],
            [
              -43.2517893,
              -22.6903106
            ],
            [
              -43.2521602,
              -22.6906124
            ],
            [
              -43.2523035,
              -22.6907497
            ],
            [
              -43.252367,
              -22.6908163
            ],
            [
              -43.2523062,
              -22.6909237
            ],
            [
              -43.2520626,
              -22.6911567
            ],
            [
              -43.251399,
              -22.6918687
            ],
            [
              -43.2508415,
              -22.6923937
            ],
            [
              -43.2504971,
              -22.692749
            ],
            [
              -43.2501673,
              -22.6931435
            ],
            [
              -43.2497751,
              -22.6935111
            ],
            [
              -43.2493624,
              -22.693107
            ],
            [
              -43.2490534,
              -22.6928425
            ],
            [
              -43.2487778,
              -22.6925849
            ],
            [
              -43.248266,
              -22.6922371
            ]
          ]
        ]
      },
      "properties": {
        "neighborhood": "Favela do Rasta"
      }
    }
  ]
}