{
  "type": "FeatureCollection",
  "features": [
    {
      "type": "Feature",
      "id": 61,
      "geometry": {
        "type": "Polygon",
        "coordinates": [
          [
            [
              -43.3041777,
              -22.7489503
            ],
            [
              -43.3038053,
              -22.7494689
            ],
            [
              -43.3036228,
              -22.749321
            ],
            [
              -43.3032736,
              -22.7490738
            ],
            [
              -43.3030727,
              -22.7489009
            ],
            [
              -43.303026,
              -22.7487709
            ],
            [
              -43.3024123,
              -22.7486812
            ],
            [
              -43.3023815,
              -22.7487763
            ],
            [
              -43.3019044,
              -22.74873
            ],
            [
              -43.3011791,
              -22.7487368
            ],
            [
              -43.3004721,
              -22.7486861
            ],
            [
              -43.300449,
              -22.7488354
            ],
            [
              -43.3003935,
              -22.7488119
            ],
            [
              -43.300335,
              -22.7488008
            ],
            [
              -43.3000606,
              -22.7487659
            ],
            [
              -43.3000817,
              -22.7485615
            ],
            [
              -43.3001061,
              -22.7483249
            ],
            [
              -43.3001282,
              -22.7482143
            ],
            [
              -43.300051,
              -22.7480796
            ],
            [
              -43.3000532,
              -22.7477619
            ],
            [
              -43.2992226,
              -22.747661
            ],
            [
              -43.2971516,
              -22.7477281
            ],
            [
              -43.2973007,
              -22.7480424
            ],
            [
              -43.2974091,
              -22.7485135
            ],
            [
              -43.2975538,
              -22.7488152
            ],
            [
              -43.2976239,
              -22.7492078
            ],
            [
              -43.297698,
              -22.7495177
            ],
            [
              -43.2975359,
              -22.7495931
            ],
            [
              -43.2966428,
              -22.7495586
            ],
            [
              -43.2949512,
              -22.749485
            ],
            [
              -43.2945964,
              -22.7494341
            ],
            [
              -43.2939592,
              -22.7494187
            ],
            [
              -43.2934089,
              -22.7493623
            ],
            [
              -43.2927473,
              -22.7493372
            ],
            [
              -43.2927112,
              -22.7493972
            ],
            [
              -43.2926627,
              -22.7494721
            ],
            [
              -43.292634,
              -22.7496119
            ],
            [
              -43.2926061,
              -22.7497461
            ],
            [
              -43.2925758,
              -22.7498919
            ],
            [
              -43.2925385,
              -22.7500693
            ],
            [
              -43.2925303,
              -22.7502636
            ],
            [
              -43.2925125,
              -22.7504585
            ],
            [
              -43.2924494,
              -22.7505387
            ],
            [
              -43.2923031,
              -22.7504861
            ],
            [
              -43.2922592,
              -22.7503602
            ],
            [
              -43.2922589,
              -22.7501101
            ],
            [
              -43.292296,
              -22.7498814
            ],
            [
              -43.2923227,
              -22.7496305
            ],
            [
              -43.2923896,
              -22.749415
            ],
            [
              -43.2924464,
              -22.7492481
            ],
            [
              -43.2924713,
              -22.7489564
            ],
            [
              -43.2924978,
              -22.7485157
            ],
            [
              -43.2925235,
              -22.7481551
            ],
            [
              -43.2924664,
              -22.7478956
            ],
            [
              -43.2925303,
              -22.7474536
            ],
            [
              -43.2926659,
              -22.746878
            ],
            [
              -43.2927684,
              -22.7468305
            ],
            [
              -43.2930855,
              -22.7468736
            ],
            [
              -43.2933832,
              -22.7468954
            ],
            [
              -43.2936991,
              -22.7469208
            ],
            [
              -43.2939431,
              -22.7469677
            ],
            [
              -43.294522,
              -22.7470282
            ],
            [
              -43.2948223,
              -22.7470303
            ],
            [
              -43.2951838,
              -22.7470673
            ],
            [
              -43.2954204,
              -22.7471271
            ],
            [
              -43.2959742,
              -22.7471033
            ],
            [
              -43.2963522,
              -22.7470849
            ],
            [
              -43.2967048,
              -22.7471535
            ],
            [
              -43.29696,
              -22.7472037
            ],
            [
              -43.2972786,
              -22.7471665
            ],
            [
              -43.2976495,
              -22.7471563
            ],
            [
              -43.2981191,
              -22.7472049
            ],
            [
              -43.2985013,
              -22.7472182
            ],
            [
              -43.2987502,
              -22.7472199
            ],
            [
              -43.2990015,
              -22.7471967
            ],
            [
              -43.2995114,
              -22.7472043
            ],
            [
              -43.299976,
              -22.7472206
            ],
            [
              -43.3001282,
              -22.7471351
            ],
            [
              -43.3003266,
              -22.7471371
            ],
            [
              -43.3004595,
              -22.747217
            ],
            [
              -43.3008754,
              -22.7472534
            ],
            [
              -43.3013432,
              -22.7471957
            ],
            [
              -43.3018656,
              -22.7472569
            ],
            [
              -43.3022947,
              -22.7472361
            ],
            [
              -43.3027164,
              -22.7472565
            ],
            [
              -43.3034172,
              -22.7474676
            ],
            [
              -43.3040665,
              -22.747735
            ],
            [
              -43.3044392,
              -22.747896
            ],
            [
              -43.3046953,
              -22.7480145
            ],
            [
              -43.3050075,
              -22.7481614
            ],
            [
              -43.30529,
              -22.7484064
            ],
            [
              -43.3055528,
              -22.7486202
            ],
            [
              -43.3058666,
              -22.748837
            ],
            [
              -43.3059885,
              -22.7490313
            ],
            [
              -43.3054012,
              -22.7497684
            ],
            [
              -43.3041777,
              -22.7489503
            ]
          ]
        ]
      },
      "properties": {
        "neighborhood": "Favela do Dick 1"
      }
    }
  ]
}