{
  "type": "FeatureCollection",
  "features": [
    {
      "type": "Feature",
      "id": 9,
      "geometry": {
        "type": "Polygon",
        "coordinates": [
          [
            [
              -43.3026694,
              -22.7255251
            ],
            [
              -43.3026039,
              -22.725575
            ],
            [
              -43.3025465,
              -22.7256298
            ],
            [
              -43.3025371,
              -22.7256389
            ],
            [
              -43.3024703,
              -22.7257028
            ],
            [
              -43.3019183,
              -22.7259904
            ],
            [
              -43.3013663,
              -22.726278
            ],
            [
              -43.3010642,
              -22.7264117
            ],
            [
              -43.3007098,
              -22.726493
            ],
            [
              -43.3002566,
              -22.7265453
            ],
            [
              -43.2998673,
              -22.7265685
            ],
            [
              -43.2994954,
              -22.7265395
            ],
            [
              -43.2990074,
              -22.7264639
            ],
            [
              -43.2984205,
              -22.7263187
            ],
            [
              -43.2979789,
              -22.7261734
            ],
            [
              -43.2979372,
              -22.7261536
            ],
            [
              -43.2991383,
              -22.7256105
            ],
            [
              -43.3021922,
              -22.7250996
            ],
            [
              -43.3023507,
              -22.7253169
            ],
            [
              -43.3026694,
              -22.7255251
            ]
          ]
        ]
      },
      "properties": {
        "neighborhood": "Favela do Parque Angola B"
      }
    }
  ]
}