{
  "type": "FeatureCollection",
  "features": [
    {
      "type": "Feature",
      "id": 63,
      "geometry": {
        "type": "Polygon",
        "coordinates": [
          [
            [
              -43.3083005,
              -22.7354017
            ],
            [
              -43.3080207,
              -22.7353672
            ],
            [
              -43.3072602,
              -22.7362959
            ],
            [
              -43.3067761,
              -22.7362548
            ],
            [
              -43.306539,
              -22.7367975
            ],
            [
              -43.3061996,
              -22.7366813
            ],
            [
              -43.3059103,
              -22.7364826
            ],
            [
              -43.3056682,
              -22.7363571
            ],
            [
              -43.305086,
              -22.7367494
            ],
            [
              -43.3025178,
              -22.7311964
            ],
            [
              -43.3041483,
              -22.7305789
            ],
            [
              -43.3043309,
              -22.7307338
            ],
            [
              -43.3056185,
              -22.7303824
            ],
            [
              -43.3056561,
              -22.730114
            ],
            [
              -43.3059153,
              -22.7298892
            ],
            [
              -43.3062238,
              -22.729715
            ],
            [
              -43.3066202,
              -22.7295706
            ],
            [
              -43.3072641,
              -22.7295258
            ],
            [
              -43.3075325,
              -22.7297001
            ],
            [
              -43.3078539,
              -22.7299515
            ],
            [
              -43.3082363,
              -22.7302947
            ],
            [
              -43.3079576,
              -22.7306638
            ],
            [
              -43.3077248,
              -22.7310791
            ],
            [
              -43.3075711,
              -22.7317467
            ],
            [
              -43.3078209,
              -22.731839
            ],
            [
              -43.3077448,
              -22.7323789
            ],
            [
              -43.3075953,
              -22.7328164
            ],
            [
              -43.3073572,
              -22.7335808
            ],
            [
              -43.3075775,
              -22.7338545
            ],
            [
              -43.3079705,
              -22.7342331
            ],
            [
              -43.3081818,
              -22.7345394
            ],
            [
              -43.3084108,
              -22.7351664
            ],
            [
              -43.3083005,
              -22.7354017
            ]
          ]
        ]
      },
      "properties": {
        "neighborhood": "Favela da Cova do Boi"
      }
    }
  ]
}