{
  "type": "FeatureCollection",
  "features": [
    {
      "type": "Feature",
      "id": 3,
      "geometry": {
        "type": "Polygon",
        "coordinates": [
          [
            [
              -43.3126695,
              -22.7517721
            ],
            [
              -43.3126427,
              -22.7517657
            ],
            [
              -43.3097343,
              -22.7509774
            ],
            [
              -43.3089003,
              -22.7506827
            ],
            [
              -43.3074061,
              -22.7497232
            ],
            [
              -43.3071319,
              -22.7495038
            ],
            [
              -43.3067574,
              -22.7492044
            ],
            [
              -43.307361,
              -22.7482261
            ],
            [
              -43.3075183,
              -22.7478864
            ],
            [
              -43.3076966,
              -22.7473007
            ],
            [
              -43.3078412,
              -22.7472443
            ],
            [
              -43.3079517,
              -22.7471423
            ],
            [
              -43.3080849,
              -22.747081
            ],
            [
              -43.3081902,
              -22.7470411
            ],
            [
              -43.3083672,
              -22.7469741
            ],
            [
              -43.3089746,
              -22.7467841
            ],
            [
              -43.3098589,
              -22.7465086
            ],
            [
              -43.3107932,
              -22.7462591
            ],
            [
              -43.3116003,
              -22.7460618
            ],
            [
              -43.3119374,
              -22.7459637
            ],
            [
              -43.3127572,
              -22.7457251
            ],
            [
              -43.3127588,
              -22.7457246
            ],
            [
              -43.3129459,
              -22.7456702
            ],
            [
              -43.3132387,
              -22.7455886
            ],
            [
              -43.3141244,
              -22.745342
            ],
            [
              -43.3145143,
              -22.7452298
            ],
            [
              -43.314934,
              -22.7463366
            ],
            [
              -43.3150629,
              -22.7466908
            ],
            [
              -43.3152894,
              -22.7469527
            ],
            [
              -43.3147234,
              -22.7473814
            ],
            [
              -43.3147053,
              -22.7473951
            ],
            [
              -43.3147911,
              -22.7478393
            ],
            [
              -43.3148432,
              -22.7481976
            ],
            [
              -43.3145254,
              -22.748372
            ],
            [
              -43.3145222,
              -22.7486058
            ],
            [
              -43.3141742,
              -22.7491165
            ],
            [
              -43.3141072,
              -22.749215
            ],
            [
              -43.3141044,
              -22.7492189
            ],
            [
              -43.3139152,
              -22.7491611
            ],
            [
              -43.3129919,
              -22.748879
            ],
            [
              -43.3124012,
              -22.7486964
            ],
            [
              -43.3122633,
              -22.7497002
            ],
            [
              -43.3122049,
              -22.7500614
            ],
            [
              -43.3125286,
              -22.7501943
            ],
            [
              -43.3124765,
              -22.7504429
            ],
            [
              -43.3130082,
              -22.7506393
            ],
            [
              -43.3126695,
              -22.7517721
            ]
          ]
        ]
      },
      "properties": {
        "neighborhood": "Favela do Barro Vermelho"
      }
    }
  ]
}