{
  "type": "FeatureCollection",
  "features": [
    {
      "type": "Feature",
      "id": 49,
      "geometry": {
        "type": "Polygon",
        "coordinates": [
          [
            [
              -43.3097079,
              -22.7984621
            ],
            [
              -43.3092497,
              -22.7985131
            ],
            [
              -43.3088329,
              -22.7985835
            ],
            [
              -43.3087734,
              -22.7985975
            ],
            [
              -43.3087864,
              -22.7985562
            ],
            [
              -43.3087986,
              -22.7984896
            ],
            [
              -43.3088354,
              -22.7982877
            ],
            [
              -43.3089268,
              -22.7978306
            ],
            [
              -43.3089851,
              -22.7977999
            ],
            [
              -43.3090105,
              -22.7976677
            ],
            [
              -43.3090416,
              -22.7975067
            ],
            [
              -43.3090471,
              -22.797478
            ],
            [
              -43.3089782,
              -22.797469
            ],
            [
              -43.308481,
              -22.7974017
            ],
            [
              -43.3083458,
              -22.7973834
            ],
            [
              -43.3083083,
              -22.7974145
            ],
            [
              -43.3081501,
              -22.797393
            ],
            [
              -43.3084045,
              -22.7962839
            ],
            [
              -43.3084132,
              -22.7961884
            ],
            [
              -43.3076471,
              -22.796094
            ],
            [
              -43.3074676,
              -22.797305
            ],
            [
              -43.3073187,
              -22.7983099
            ],
            [
              -43.307287,
              -22.7983058
            ],
            [
              -43.3072731,
              -22.7982484
            ],
            [
              -43.3071999,
              -22.7981554
            ],
            [
              -43.30719,
              -22.7976556
            ],
            [
              -43.3074117,
              -22.7963304
            ],
            [
              -43.3055352,
              -22.7962849
            ],
            [
              -43.3053373,
              -22.7961562
            ],
            [
              -43.3052341,
              -22.7961445
            ],
            [
              -43.3052768,
              -22.7956966
            ],
            [
              -43.3054213,
              -22.7951336
            ],
            [
              -43.3055973,
              -22.7947024
            ],
            [
              -43.3057618,
              -22.7945535
            ],
            [
              -43.3057821,
              -22.7945352
            ],
            [
              -43.3060289,
              -22.794341
            ],
            [
              -43.3066155,
              -22.7940267
            ],
            [
              -43.3072662,
              -22.7937628
            ],
            [
              -43.3078906,
              -22.7934463
            ],
            [
              -43.3084784,
              -22.7930436
            ],
            [
              -43.308634,
              -22.7928466
            ],
            [
              -43.3092999,
              -22.793319
            ],
            [
              -43.3098518,
              -22.7937175
            ],
            [
              -43.3098979,
              -22.7936687
            ],
            [
              -43.3099979,
              -22.793555
            ],
            [
              -43.3101802,
              -22.793228
            ],
            [
              -43.3105401,
              -22.7925428
            ],
            [
              -43.3111613,
              -22.7927876
            ],
            [
              -43.3122908,
              -22.7933257
            ],
            [
              -43.3122557,
              -22.7934256
            ],
            [
              -43.3122918,
              -22.79351
            ],
            [
              -43.3124104,
              -22.7935977
            ],
            [
              -43.3125364,
              -22.793763
            ],
            [
              -43.3126032,
              -22.7938614
            ],
            [
              -43.3126568,
              -22.7939404
            ],
            [
              -43.3119762,
              -22.794535
            ],
            [
              -43.3117768,
              -22.7947674
            ],
            [
              -43.311728,
              -22.7948243
            ],
            [
              -43.3117035,
              -22.7948616
            ],
            [
              -43.3115403,
              -22.7951108
            ],
            [
              -43.3114125,
              -22.7954177
            ],
            [
              -43.3113987,
              -22.7954868
            ],
            [
              -43.3112309,
              -22.7961211
            ],
            [
              -43.3112139,
              -22.7962105
            ],
            [
              -43.311164,
              -22.7964728
            ],
            [
              -43.3109797,
              -22.7972432
            ],
            [
              -43.3109582,
              -22.7973274
            ],
            [
              -43.3108254,
              -22.7978457
            ],
            [
              -43.3106782,
              -22.7984199
            ],
            [
              -43.3106626,
              -22.7984809
            ],
            [
              -43.3106381,
              -22.7985766
            ],
            [
              -43.3102917,
              -22.7985138
            ],
            [
              -43.3097079,
              -22.7984621
            ]
          ],
          [
            [
              -43.3084357,
              -22.7952448
            ],
            [
              -43.3084034,
              -22.795214
            ],
            [
              -43.3082426,
              -22.7950607
            ],
            [
              -43.3082189,
              -22.7950382
            ],
            [
              -43.3081353,
              -22.7949585
            ],
            [
              -43.3081061,
              -22.7949306
            ],
            [
              -43.3084637,
              -22.7946969
            ],
            [
              -43.3084505,
              -22.79468
            ],
            [
              -43.3082763,
              -22.7944563
            ],
            [
              -43.3081124,
              -22.7942793
            ],
            [
              -43.3079596,
              -22.7943595
            ],
            [
              -43.3079416,
              -22.7943672
            ],
            [
              -43.3077494,
              -22.79445
            ],
            [
              -43.3077425,
              -22.7944538
            ],
            [
              -43.3076314,
              -22.7945152
            ],
            [
              -43.3075469,
              -22.794562
            ],
            [
              -43.3073996,
              -22.794674
            ],
            [
              -43.3073918,
              -22.7947402
            ],
            [
              -43.3073878,
              -22.7947738
            ],
            [
              -43.3074051,
              -22.7948954
            ],
            [
              -43.3074085,
              -22.7949052
            ],
            [
              -43.3074573,
              -22.795046
            ],
            [
              -43.3075325,
              -22.7951618
            ],
            [
              -43.3076599,
              -22.7952545
            ],
            [
              -43.3077873,
              -22.7953182
            ],
            [
              -43.3079553,
              -22.7953587
            ],
            [
              -43.3082043,
              -22.7953297
            ],
            [
              -43.3084357,
              -22.7952448
            ]
          ]
        ]
      },
      "properties": {
        "neighborhood": "Favela do Lixão"
      }
    }
  ]
}