{
  "type": "FeatureCollection",
  "features": [
    {
      "type": "Feature",
      "id": 26,
      "geometry": {
        "type": "Polygon",
        "coordinates": [
          [
            [
              -43.3146313,
              -22.7320586
            ],
            [
              -43.3146025,
              -22.7321547
            ],
            [
              -43.3144941,
              -22.7325691
            ],
            [
              -43.3140929,
              -22.7324882
            ],
            [
              -43.3119632,
              -22.7320591
            ],
            [
              -43.3115297,
              -22.7319571
            ],
            [
              -43.3121481,
              -22.7293433
            ],
            [
              -43.3121937,
              -22.7291717
            ],
            [
              -43.312504,
              -22.7292699
            ],
            [
              -43.3132384,
              -22.7294152
            ],
            [
              -43.3133523,
              -22.7294113
            ],
            [
              -43.3134191,
              -22.7294348
            ],
            [
              -43.3137686,
              -22.7297962
            ],
            [
              -43.3137988,
              -22.7298458
            ],
            [
              -43.3138223,
              -22.7299178
            ],
            [
              -43.313871,
              -22.7299353
            ],
            [
              -43.3139014,
              -22.7299561
            ],
            [
              -43.3141308,
              -22.7301131
            ],
            [
              -43.3143942,
              -22.7303217
            ],
            [
              -43.3145224,
              -22.7303593
            ],
            [
              -43.3146062,
              -22.730426
            ],
            [
              -43.3146084,
              -22.7304284
            ],
            [
              -43.3146882,
              -22.7305132
            ],
            [
              -43.3146983,
              -22.7305425
            ],
            [
              -43.3147235,
              -22.730575
            ],
            [
              -43.31473,
              -22.7311219
            ],
            [
              -43.3147259,
              -22.7311584
            ],
            [
              -43.3146724,
              -22.7316391
            ],
            [
              -43.3146708,
              -22.7316541
            ],
            [
              -43.3147113,
              -22.7316861
            ],
            [
              -43.3147172,
              -22.7317722
            ],
            [
              -43.3146313,
              -22.7320586
            ]
          ]
        ]
      },
      "properties": {
        "neighborhood": "Garibaldi"
      }
    }
  ]
}