{
  "type": "FeatureCollection",
  "features": [
    {
      "type": "Feature",
      "id": 92,
      "geometry": {
        "type": "Polygon",
        "coordinates": [
          [
            [
              -43.2331806,
              -22.703712
            ],
            [
              -43.2337486,
              -22.7054648
            ],
            [
              -43.2337973,
              -22.7060978
            ],
            [
              -43.2238809,
              -22.7085485
            ],
            [
              -43.2198234,
              -22.709717
            ],
            [
              -43.2186711,
              -22.7077857
            ],
            [
              -43.2331806,
              -22.703712
            ]
          ]
        ]
      },
      "properties": {
        "neighborhood": "Jardim Ana Clara (Cantinho do Vov-)"
      }
    }
  ]
}