{
  "type": "FeatureCollection",
  "features": [
    {
      "type": "Feature",
      "id": 93,
      "geometry": {
        "type": "Polygon",
        "coordinates": [
          [
            [
              -43.3104157,
              -22.7112891
            ],
            [
              -43.3104339,
              -22.7156518
            ],
            [
              -43.3092109,
              -22.7162724
            ],
            [
              -43.3081887,
              -22.716674
            ],
            [
              -43.3065641,
              -22.7170025
            ],
            [
              -43.3056149,
              -22.716966
            ],
            [
              -43.3048848,
              -22.716747
            ],
            [
              -43.30368,
              -22.7163272
            ],
            [
              -43.3026943,
              -22.7160899
            ],
            [
              -43.3016173,
              -22.7161446
            ],
            [
              -43.3004856,
              -22.7161446
            ],
            [
              -43.2992991,
              -22.7160168
            ],
            [
              -43.298715,
              -22.7111978
            ],
            [
              -43.3104157,
              -22.7112891
            ]
          ]
        ]
      },
      "properties": {
        "neighborhood": "Jardim Vista Alegre"
      }
    }
  ]
}