{
  "type": "FeatureCollection",
  "features": [
    {
      "type": "Feature",
      "id": 71,
      "geometry": {
        "type": "Polygon",
        "coordinates": [
          [
            [
              -43.3252287,
              -22.7676828
            ],
            [
              -43.3277952,
              -22.7681767
            ],
            [
              -43.3278564,
              -22.7699182
            ],
            [
              -43.3287631,
              -22.7701016
            ],
            [
              -43.329628,
              -22.7702929
            ],
            [
              -43.3296698,
              -22.7714167
            ],
            [
              -43.3297127,
              -22.771612
            ],
            [
              -43.3297114,
              -22.7717601
            ],
            [
              -43.3296929,
              -22.7718873
            ],
            [
              -43.329683,
              -22.772056
            ],
            [
              -43.3296948,
              -22.772244
            ],
            [
              -43.3297437,
              -22.7722856
            ],
            [
              -43.3297158,
              -22.7723636
            ],
            [
              -43.3297062,
              -22.7724834
            ],
            [
              -43.3297146,
              -22.7726492
            ],
            [
              -43.329681,
              -22.7728007
            ],
            [
              -43.3296371,
              -22.7729387
            ],
            [
              -43.329594,
              -22.7730603
            ],
            [
              -43.3295877,
              -22.773148
            ],
            [
              -43.3295236,
              -22.7732763
            ],
            [
              -43.3295259,
              -22.7734269
            ],
            [
              -43.3295145,
              -22.7738785
            ],
            [
              -43.3292455,
              -22.7739267
            ],
            [
              -43.3288604,
              -22.7739649
            ],
            [
              -43.3286083,
              -22.7740278
            ],
            [
              -43.3275544,
              -22.7737842
            ],
            [
              -43.3272443,
              -22.7735323
            ],
            [
              -43.3261726,
              -22.7732004
            ],
            [
              -43.325851,
              -22.7731552
            ],
            [
              -43.3256166,
              -22.7732539
            ],
            [
              -43.3253754,
              -22.773412
            ],
            [
              -43.3247863,
              -22.7736538
            ],
            [
              -43.3244664,
              -22.7730449
            ],
            [
              -43.323945,
              -22.7708243
            ],
            [
              -43.323883,
              -22.7708238
            ],
            [
              -43.3235248,
              -22.7686808
            ],
            [
              -43.3246209,
              -22.7693701
            ],
            [
              -43.3242586,
              -22.767522
            ],
            [
              -43.3252287,
              -22.7676828
            ]
          ]
        ]
      },
      "properties": {
        "neighborhood": "Morro do Sao Pedro"
      }
    }
  ]
}