{
  "type": "FeatureCollection",
  "features": [
    {
      "type": "Feature",
      "id": 15,
      "geometry": {
        "type": "Polygon",
        "coordinates": [
          [
            [
              -43.2725199,
              -22.7014557
            ],
            [
              -43.2735527,
              -22.7009915
            ],
            [
              -43.2736624,
              -22.700827
            ],
            [
              -43.2738226,
              -22.7006058
            ],
            [
              -43.2739054,
              -22.7004536
            ],
            [
              -43.2740356,
              -22.7003197
            ],
            [
              -43.27418,
              -22.7001485
            ],
            [
              -43.274304,
              -22.6999883
            ],
            [
              -43.2744172,
              -22.6998475
            ],
            [
              -43.274693,
              -22.6994579
            ],
            [
              -43.2755611,
              -22.7000918
            ],
            [
              -43.2758966,
              -22.7003369
            ],
            [
              -43.2762728,
              -22.7006116
            ],
            [
              -43.2766429,
              -22.7008824
            ],
            [
              -43.2763397,
              -22.7013262
            ],
            [
              -43.2761981,
              -22.7015431
            ],
            [
              -43.2760314,
              -22.7017982
            ],
            [
              -43.2756032,
              -22.7013272
            ],
            [
              -43.2753317,
              -22.7013799
            ],
            [
              -43.2740119,
              -22.701636
            ],
            [
              -43.2736904,
              -22.7016983
            ],
            [
              -43.2734593,
              -22.7016232
            ],
            [
              -43.2731404,
              -22.7015121
            ],
            [
              -43.2725199,
              -22.7014557
            ]
          ]
        ]
      },
      "properties": {
        "neighborhood": "Morro do São Paulo"
      }
    }
  ]
}