{
  "type": "FeatureCollection",
  "features": [
    {
      "type": "Feature",
      "id": 74,
      "geometry": {
        "type": "Polygon",
        "coordinates": [
          [
            [
              -43.3289655,
              -22.7771905
            ],
            [
              -43.329429,
              -22.7774095
            ],
            [
              -43.3302092,
              -22.7747353
            ],
            [
              -43.330631,
              -22.7748065
            ],
            [
              -43.3308209,
              -22.7754463
            ],
            [
              -43.3306101,
              -22.7757968
            ],
            [
              -43.3307388,
              -22.7762062
            ],
            [
              -43.3309091,
              -22.7766997
            ],
            [
              -43.3308195,
              -22.7772152
            ],
            [
              -43.3308327,
              -22.7778191
            ],
            [
              -43.3308326,
              -22.7782644
            ],
            [
              -43.3308186,
              -22.7786999
            ],
            [
              -43.3307432,
              -22.7791309
            ],
            [
              -43.3307408,
              -22.7796053
            ],
            [
              -43.3307471,
              -22.7800807
            ],
            [
              -43.3306813,
              -22.7804155
            ],
            [
              -43.3306459,
              -22.7809688
            ],
            [
              -43.3306067,
              -22.7815584
            ],
            [
              -43.3305385,
              -22.7827679
            ],
            [
              -43.3298591,
              -22.7830261
            ],
            [
              -43.3297805,
              -22.7828859
            ],
            [
              -43.3296417,
              -22.7829116
            ],
            [
              -43.3296047,
              -22.7827111
            ],
            [
              -43.3294449,
              -22.7826602
            ],
            [
              -43.3291848,
              -22.7828196
            ],
            [
              -43.3289005,
              -22.7825897
            ],
            [
              -43.328181,
              -22.7821028
            ],
            [
              -43.3275063,
              -22.7815948
            ],
            [
              -43.3271263,
              -22.7812512
            ],
            [
              -43.3268542,
              -22.781157
            ],
            [
              -43.3289655,
              -22.7771905
            ]
          ]
        ]
      },
      "properties": {
        "neighborhood": "Morro do Coqueirinho"
      }
    }
  ]
}