{
  "type": "FeatureCollection",
  "features": [
    {
      "type": "Feature",
      "id": 64,
      "geometry": {
        "type": "Polygon",
        "coordinates": [
          [
            [
              -43.3306065,
              -22.724629
            ],
            [
              -43.3308798,
              -22.7243503
            ],
            [
              -43.3311154,
              -22.7241659
            ],
            [
              -43.3313529,
              -22.7241036
            ],
            [
              -43.3316094,
              -22.7240866
            ],
            [
              -43.3317089,
              -22.724097
            ],
            [
              -43.3321883,
              -22.7241463
            ],
            [
              -43.3324663,
              -22.7241423
            ],
            [
              -43.3328583,
              -22.7240107
            ],
            [
              -43.3333925,
              -22.7238537
            ],
            [
              -43.3333324,
              -22.724058
            ],
            [
              -43.3345049,
              -22.7242685
            ],
            [
              -43.334908,
              -22.7243496
            ],
            [
              -43.3347573,
              -22.7252438
            ],
            [
              -43.3346483,
              -22.7256372
            ],
            [
              -43.3346093,
              -22.7260185
            ],
            [
              -43.3342647,
              -22.7260317
            ],
            [
              -43.3342821,
              -22.7255616
            ],
            [
              -43.3327232,
              -22.72541
            ],
            [
              -43.3321604,
              -22.7252605
            ],
            [
              -43.3322265,
              -22.7251321
            ],
            [
              -43.3316981,
              -22.7250429
            ],
            [
              -43.3312759,
              -22.7250227
            ],
            [
              -43.3308389,
              -22.7248239
            ],
            [
              -43.3306065,
              -22.724629
            ]
          ]
        ]
      },
      "properties": {
        "neighborhood": "Morro do Bento"
      }
    }
  ]
}