{
  "type": "FeatureCollection",
  "features": [
    {
      "type": "Feature",
      "id": 91,
      "geometry": {
        "type": "Polygon",
        "coordinates": [
          [
            [
              -43.3253171,
              -22.7242021
            ],
            [
              -43.3225256,
              -22.7257277
            ],
            [
              -43.3215761,
              -22.7254843
            ],
            [
              -43.3213489,
              -22.7253544
            ],
            [
              -43.3211866,
              -22.7251921
            ],
            [
              -43.321,
              -22.7248432
            ],
            [
              -43.3206104,
              -22.7242508
            ],
            [
              -43.3188576,
              -22.7214593
            ],
            [
              -43.3220143,
              -22.7197714
            ],
            [
              -43.3220711,
              -22.7198282
            ],
            [
              -43.3222253,
              -22.7200554
            ],
            [
              -43.3223795,
              -22.7204206
            ],
            [
              -43.3224931,
              -22.720802
            ],
            [
              -43.3226797,
              -22.7213862
            ],
            [
              -43.3228826,
              -22.7221571
            ],
            [
              -43.3232072,
              -22.7229037
            ],
            [
              -43.3233695,
              -22.7231391
            ],
            [
              -43.3234994,
              -22.7232689
            ],
            [
              -43.3237103,
              -22.7233825
            ],
            [
              -43.3245056,
              -22.7236827
            ],
            [
              -43.3250899,
              -22.7238126
            ],
            [
              -43.3253171,
              -22.7242021
            ]
          ]
        ]
      },
      "properties": {
        "neighborhood": "Nossa Senhora das Grabas"
      }
    }
  ]
}