{
  "type": "FeatureCollection",
  "features": [
    {
      "type": "Feature",
      "id": 47,
      "geometry": {
        "type": "Polygon",
        "coordinates": [
          [
            [
              -43.2897558,
              -22.7524439
            ],
            [
              -43.2893943,
              -22.7524154
            ],
            [
              -43.2884957,
              -22.7523445
            ],
            [
              -43.2874589,
              -22.7522591
            ],
            [
              -43.287701,
              -22.7491104
            ],
            [
              -43.2879211,
              -22.7462485
            ],
            [
              -43.2881379,
              -22.7462581
            ],
            [
              -43.2905333,
              -22.7463645
            ],
            [
              -43.2906412,
              -22.7469983
            ],
            [
              -43.2906565,
              -22.7471817
            ],
            [
              -43.2909928,
              -22.7489192
            ],
            [
              -43.2913043,
              -22.7495734
            ],
            [
              -43.2917229,
              -22.7501803
            ],
            [
              -43.2913836,
              -22.7502569
            ],
            [
              -43.2913384,
              -22.7506633
            ],
            [
              -43.2913205,
              -22.7508249
            ],
            [
              -43.2912904,
              -22.7511899
            ],
            [
              -43.2911771,
              -22.7525634
            ],
            [
              -43.2902964,
              -22.7524891
            ],
            [
              -43.2898413,
              -22.7524507
            ],
            [
              -43.2897558,
              -22.7524439
            ]
          ]
        ]
      },
      "properties": {
        "neighborhood": "Paraopeba"
      }
    }
  ]
}