{
  "type": "FeatureCollection",
  "features": [
    {
      "type": "Feature",
      "id": 87,
      "geometry": {
        "type": "Polygon",
        "coordinates": [
          [
            [
              -43.2498176,
              -22.6935431
            ],
            [
              -43.2489597,
              -22.6944467
            ],
            [
              -43.2479922,
              -22.6937804
            ],
            [
              -43.2473077,
              -22.6945836
            ],
            [
              -43.2448708,
              -22.6975133
            ],
            [
              -43.2440129,
              -22.6969018
            ],
            [
              -43.2434744,
              -22.6960713
            ],
            [
              -43.243082,
              -22.6954324
            ],
            [
              -43.2427443,
              -22.6947753
            ],
            [
              -43.2423153,
              -22.6940542
            ],
            [
              -43.2418539,
              -22.6932611
            ],
            [
              -43.2418285,
              -22.6931253
            ],
            [
              -43.2417697,
              -22.6927623
            ],
            [
              -43.2416379,
              -22.6926537
            ],
            [
              -43.2405961,
              -22.6931447
            ],
            [
              -43.2395813,
              -22.6913141
            ],
            [
              -43.2405903,
              -22.6912888
            ],
            [
              -43.243803,
              -22.6913162
            ],
            [
              -43.2438851,
              -22.6912888
            ],
            [
              -43.2442776,
              -22.6910515
            ],
            [
              -43.2446061,
              -22.6909328
            ],
            [
              -43.2447157,
              -22.6909602
            ],
            [
              -43.2454549,
              -22.6914439
            ],
            [
              -43.2456557,
              -22.6914713
            ],
            [
              -43.246468,
              -22.6912797
            ],
            [
              -43.2466962,
              -22.6912614
            ],
            [
              -43.2469791,
              -22.6914348
            ],
            [
              -43.2479922,
              -22.6920737
            ],
            [
              -43.2488045,
              -22.6926487
            ],
            [
              -43.2492152,
              -22.6929864
            ],
            [
              -43.2498176,
              -22.6935431
            ]
          ]
        ]
      },
      "properties": {
        "neighborhood": "Parque Chuno"
      }
    }
  ]
}