{
  "type": "FeatureCollection",
  "features": [
    {
      "type": "Feature",
      "id": 19,
      "geometry": {
        "type": "Polygon",
        "coordinates": [
          [
            [
              -43.2781203,
              -22.8062774
            ],
            [
              -43.277809,
              -22.8059557
            ],
            [
              -43.2773731,
              -22.8053123
            ],
            [
              -43.2771241,
              -22.8046481
            ],
            [
              -43.2770021,
              -22.8042619
            ],
            [
              -43.276875,
              -22.8038594
            ],
            [
              -43.2771316,
              -22.8038015
            ],
            [
              -43.2787887,
              -22.8034273
            ],
            [
              -43.2792097,
              -22.8033322
            ],
            [
              -43.2792449,
              -22.8033328
            ],
            [
              -43.2816106,
              -22.8033704
            ],
            [
              -43.2816101,
              -22.8034031
            ],
            [
              -43.2822255,
              -22.8033781
            ],
            [
              -43.2843219,
              -22.8034054
            ],
            [
              -43.2845108,
              -22.8033659
            ],
            [
              -43.2852443,
              -22.8032125
            ],
            [
              -43.2859603,
              -22.8030628
            ],
            [
              -43.286325,
              -22.8029865
            ],
            [
              -43.2865668,
              -22.8029436
            ],
            [
              -43.2879188,
              -22.8027038
            ],
            [
              -43.2891378,
              -22.8025439
            ],
            [
              -43.2896343,
              -22.8025394
            ],
            [
              -43.2901566,
              -22.8025407
            ],
            [
              -43.2902204,
              -22.8025361
            ],
            [
              -43.290325,
              -22.8025285
            ],
            [
              -43.2903226,
              -22.8025408
            ],
            [
              -43.2902655,
              -22.8028352
            ],
            [
              -43.2901907,
              -22.8032208
            ],
            [
              -43.290163,
              -22.8033633
            ],
            [
              -43.2899401,
              -22.8033163
            ],
            [
              -43.2896975,
              -22.8032652
            ],
            [
              -43.2895896,
              -22.803259
            ],
            [
              -43.2889829,
              -22.8033347
            ],
            [
              -43.288547,
              -22.8034486
            ],
            [
              -43.2880144,
              -22.8036613
            ],
            [
              -43.2876853,
              -22.8037876
            ],
            [
              -43.2872007,
              -22.8039378
            ],
            [
              -43.2870745,
              -22.8039768
            ],
            [
              -43.2867213,
              -22.8040997
            ],
            [
              -43.2863534,
              -22.8041877
            ],
            [
              -43.2861353,
              -22.8042362
            ],
            [
              -43.2860651,
              -22.8042966
            ],
            [
              -43.2860163,
              -22.8043252
            ],
            [
              -43.2860108,
              -22.8043284
            ],
            [
              -43.2856122,
              -22.8043237
            ],
            [
              -43.2852384,
              -22.8043174
            ],
            [
              -43.2852052,
              -22.8043168
            ],
            [
              -43.2849714,
              -22.80432
            ],
            [
              -43.2848043,
              -22.8043238
            ],
            [
              -43.2844133,
              -22.8043238
            ],
            [
              -43.2840217,
              -22.8043013
            ],
            [
              -43.2836179,
              -22.8043069
            ],
            [
              -43.2832147,
              -22.8042956
            ],
            [
              -43.2828768,
              -22.804283
            ],
            [
              -43.2828338,
              -22.8042813
            ],
            [
              -43.2828255,
              -22.8042903
            ],
            [
              -43.282814,
              -22.8043263
            ],
            [
              -43.2828134,
              -22.8043536
            ],
            [
              -43.2828106,
              -22.8044575
            ],
            [
              -43.2827667,
              -22.8045184
            ],
            [
              -43.2824444,
              -22.8045115
            ],
            [
              -43.2824026,
              -22.8044289
            ],
            [
              -43.2824021,
              -22.8042906
            ],
            [
              -43.2822161,
              -22.8042889
            ],
            [
              -43.2815977,
              -22.804283
            ],
            [
              -43.2815979,
              -22.804256
            ],
            [
              -43.2807795,
              -22.8042457
            ],
            [
              -43.279986,
              -22.8042459
            ],
            [
              -43.2792349,
              -22.8042414
            ],
            [
              -43.2787944,
              -22.804238
            ],
            [
              -43.2788201,
              -22.8046362
            ],
            [
              -43.2788188,
              -22.8048695
            ],
            [
              -43.2788206,
              -22.8051235
            ],
            [
              -43.2789974,
              -22.805192
            ],
            [
              -43.2791932,
              -22.8054688
            ],
            [
              -43.2791673,
              -22.8062693
            ],
            [
              -43.2791782,
              -22.8062697
            ],
            [
              -43.2795807,
              -22.8062906
            ],
            [
              -43.279977,
              -22.8063099
            ],
            [
              -43.2799647,
              -22.8071705
            ],
            [
              -43.2799609,
              -22.8074419
            ],
            [
              -43.2797277,
              -22.8074322
            ],
            [
              -43.2795981,
              -22.8074251
            ],
            [
              -43.2790904,
              -22.8073973
            ],
            [
              -43.2790763,
              -22.8073801
            ],
            [
              -43.278743,
              -22.8069727
            ],
            [
              -43.2784317,
              -22.8065991
            ],
            [
              -43.2781203,
              -22.8062774
            ]
          ]
        ]
      },
      "properties": {
        "neighborhood": "Parque das Missões"
      }
    }
  ]
}