{
  "type": "FeatureCollection",
  "features": [
    {
      "type": "Feature",
      "id": 52,
      "geometry": {
        "type": "Polygon",
        "coordinates": [
          [
            [
              -43.3241092,
              -22.72283
            ],
            [
              -43.3240953,
              -22.7229442
            ],
            [
              -43.3246286,
              -22.72342
            ],
            [
              -43.3246925,
              -22.7235286
            ],
            [
              -43.3246861,
              -22.7236276
            ],
            [
              -43.3246829,
              -22.7238033
            ],
            [
              -43.3245344,
              -22.7237745
            ],
            [
              -43.3242041,
              -22.723614
            ],
            [
              -43.3237305,
              -22.7233772
            ],
            [
              -43.3234453,
              -22.7232386
            ],
            [
              -43.3231797,
              -22.7228507
            ],
            [
              -43.3231255,
              -22.7227718
            ],
            [
              -43.3229007,
              -22.7222878
            ],
            [
              -43.3227624,
              -22.7218037
            ],
            [
              -43.3227105,
              -22.721553
            ],
            [
              -43.3224166,
              -22.7205071
            ],
            [
              -43.3223129,
              -22.7202823
            ],
            [
              -43.3220283,
              -22.719654
            ],
            [
              -43.3228338,
              -22.7192493
            ],
            [
              -43.3232358,
              -22.7190447
            ],
            [
              -43.3237376,
              -22.7186904
            ],
            [
              -43.3240363,
              -22.718424
            ],
            [
              -43.3242537,
              -22.7182219
            ],
            [
              -43.3242595,
              -22.7182337
            ],
            [
              -43.3242878,
              -22.7182906
            ],
            [
              -43.324812,
              -22.7193472
            ],
            [
              -43.3249549,
              -22.7196351
            ],
            [
              -43.3249991,
              -22.7197242
            ],
            [
              -43.3250432,
              -22.7198133
            ],
            [
              -43.325091,
              -22.7199094
            ],
            [
              -43.3251485,
              -22.7200255
            ],
            [
              -43.3251921,
              -22.7201133
            ],
            [
              -43.3252478,
              -22.7202255
            ],
            [
              -43.3252507,
              -22.7202315
            ],
            [
              -43.3252586,
              -22.7202473
            ],
            [
              -43.3252998,
              -22.7203304
            ],
            [
              -43.3257953,
              -22.7213291
            ],
            [
              -43.3258212,
              -22.7213812
            ],
            [
              -43.3259809,
              -22.7217031
            ],
            [
              -43.3260112,
              -22.7217642
            ],
            [
              -43.3259876,
              -22.7217834
            ],
            [
              -43.3255835,
              -22.7220899
            ],
            [
              -43.3251287,
              -22.7224045
            ],
            [
              -43.3251049,
              -22.7224909
            ],
            [
              -43.3250574,
              -22.7225579
            ],
            [
              -43.3246829,
              -22.7228931
            ],
            [
              -43.3245679,
              -22.7229857
            ],
            [
              -43.3245009,
              -22.7229953
            ],
            [
              -43.3244069,
              -22.7229101
            ],
            [
              -43.3243291,
              -22.7228518
            ],
            [
              -43.3242326,
              -22.7228069
            ],
            [
              -43.3241092,
              -22.72283
            ]
          ]
        ]
      },
      "properties": {
        "neighborhood": "Parque Muísa"
      }
    }
  ]
}