{
  "type": "FeatureCollection",
  "features": [
    {
      "type": "Feature",
      "id": 88,
      "geometry": {
        "type": "Polygon",
        "coordinates": [
          [
            [
              -43.2507034,
              -22.692815
            ],
            [
              -43.2512947,
              -22.6937508
            ],
            [
              -43.2521903,
              -22.6951976
            ],
            [
              -43.2535854,
              -22.6974653
            ],
            [
              -43.2544925,
              -22.6970692
            ],
            [
              -43.254837,
              -22.6970692
            ],
            [
              -43.2562206,
              -22.697207
            ],
            [
              -43.2564961,
              -22.6972127
            ],
            [
              -43.2566741,
              -22.6971438
            ],
            [
              -43.2573056,
              -22.6965755
            ],
            [
              -43.2578166,
              -22.6961334
            ],
            [
              -43.2579773,
              -22.6962654
            ],
            [
              -43.2586146,
              -22.6966673
            ],
            [
              -43.2596078,
              -22.6972299
            ],
            [
              -43.2598202,
              -22.6974768
            ],
            [
              -43.2597571,
              -22.69785
            ],
            [
              -43.2600614,
              -22.6983035
            ],
            [
              -43.2603829,
              -22.6986767
            ],
            [
              -43.260291,
              -22.6989638
            ],
            [
              -43.2603656,
              -22.6994288
            ],
            [
              -43.259183,
              -22.6996929
            ],
            [
              -43.2589074,
              -22.700244
            ],
            [
              -43.2588213,
              -22.7004622
            ],
            [
              -43.25885,
              -22.7007033
            ],
            [
              -43.2574836,
              -22.7017941
            ],
            [
              -43.2566339,
              -22.702529
            ],
            [
              -43.2555546,
              -22.7036543
            ],
            [
              -43.2542686,
              -22.704125
            ],
            [
              -43.2519836,
              -22.7047451
            ],
            [
              -43.2512602,
              -22.7053536
            ],
            [
              -43.2502613,
              -22.705744
            ],
            [
              -43.2495149,
              -22.7058129
            ],
            [
              -43.2487571,
              -22.7053077
            ],
            [
              -43.2484012,
              -22.7046647
            ],
            [
              -43.2477352,
              -22.7037117
            ],
            [
              -43.246564,
              -22.7032409
            ],
            [
              -43.2458406,
              -22.7020582
            ],
            [
              -43.2442102,
              -22.7013463
            ],
            [
              -43.2429241,
              -22.70029
            ],
            [
              -43.2425567,
              -22.6998307
            ],
            [
              -43.2446006,
              -22.6973275
            ],
            [
              -43.2449221,
              -22.6975572
            ],
            [
              -43.2480223,
              -22.693791
            ],
            [
              -43.2489638,
              -22.6945029
            ],
            [
              -43.2507034,
              -22.692815
            ]
          ]
        ]
      },
      "properties": {
        "neighborhood": "Parque Bom Retiro"
      }
    }
  ]
}