{
  "type": "FeatureCollection",
  "features": [
    {
      "type": "Feature",
      "id": 36,
      "geometry": {
        "type": "Polygon",
        "coordinates": [
          [
            [
              -43.26995,
              -22.7515727
            ],
            [
              -43.2698818,
              -22.7516977
            ],
            [
              -43.2698866,
              -22.7517536
            ],
            [
              -43.2702211,
              -22.7519584
            ],
            [
              -43.2702515,
              -22.7523744
            ],
            [
              -43.2702421,
              -22.7524163
            ],
            [
              -43.2719354,
              -22.7535625
            ],
            [
              -43.2741109,
              -22.7550629
            ],
            [
              -43.2738078,
              -22.7554254
            ],
            [
              -43.2732066,
              -22.7561441
            ],
            [
              -43.2725069,
              -22.7569446
            ],
            [
              -43.2707218,
              -22.7585443
            ],
            [
              -43.2711398,
              -22.7589389
            ],
            [
              -43.2706459,
              -22.7593651
            ],
            [
              -43.2703737,
              -22.7596
            ],
            [
              -43.2703713,
              -22.7596021
            ],
            [
              -43.2702006,
              -22.7596547
            ],
            [
              -43.2699862,
              -22.7597315
            ],
            [
              -43.2696817,
              -22.7598216
            ],
            [
              -43.2696369,
              -22.7598236
            ],
            [
              -43.2693366,
              -22.7597076
            ],
            [
              -43.269244,
              -22.7593773
            ],
            [
              -43.2692247,
              -22.759358
            ],
            [
              -43.2692076,
              -22.7592669
            ],
            [
              -43.2693634,
              -22.7587297
            ],
            [
              -43.2700074,
              -22.7577201
            ],
            [
              -43.270742,
              -22.7569539
            ],
            [
              -43.2708732,
              -22.7564531
            ],
            [
              -43.2705333,
              -22.7560774
            ],
            [
              -43.2700124,
              -22.7560169
            ],
            [
              -43.2689163,
              -22.7552885
            ],
            [
              -43.2682138,
              -22.7544495
            ],
            [
              -43.2680982,
              -22.753622
            ],
            [
              -43.2683927,
              -22.752452
            ],
            [
              -43.267695,
              -22.7519928
            ],
            [
              -43.2674923,
              -22.7515337
            ],
            [
              -43.2676771,
              -22.751009
            ],
            [
              -43.2681526,
              -22.7505649
            ],
            [
              -43.2693132,
              -22.7501014
            ],
            [
              -43.2696438,
              -22.7500387
            ],
            [
              -43.2697705,
              -22.7500343
            ],
            [
              -43.2700522,
              -22.7501893
            ],
            [
              -43.2702562,
              -22.7505476
            ],
            [
              -43.2702471,
              -22.7510413
            ],
            [
              -43.2702261,
              -22.7512179
            ],
            [
              -43.2700031,
              -22.7513791
            ],
            [
              -43.26995,
              -22.7515727
            ]
          ]
        ]
      },
      "properties": {
        "neighborhood": "Remanso"
      }
    }
  ]
}