{
  "type": "FeatureCollection",
  "features": [
    {
      "type": "Feature",
      "id": 43,
      "geometry": {
        "type": "Polygon",
        "coordinates": [
          [
            [
              -43.3145972,
              -22.7392517
            ],
            [
              -43.3151764,
              -22.738884
            ],
            [
              -43.3158135,
              -22.7390654
            ],
            [
              -43.3161857,
              -22.7393783
            ],
            [
              -43.316314,
              -22.7393177
            ],
            [
              -43.3168528,
              -22.7392184
            ],
            [
              -43.3175361,
              -22.7391396
            ],
            [
              -43.3175843,
              -22.7391615
            ],
            [
              -43.317631,
              -22.7391713
            ],
            [
              -43.3176173,
              -22.739232
            ],
            [
              -43.3176273,
              -22.7392918
            ],
            [
              -43.3177817,
              -22.7394549
            ],
            [
              -43.3179647,
              -22.7396591
            ],
            [
              -43.3177331,
              -22.7399443
            ],
            [
              -43.3174007,
              -22.740141
            ],
            [
              -43.3173222,
              -22.740202
            ],
            [
              -43.3172129,
              -22.7402881
            ],
            [
              -43.3171435,
              -22.7403895
            ],
            [
              -43.3171194,
              -22.740509
            ],
            [
              -43.3170985,
              -22.7406261
            ],
            [
              -43.3168995,
              -22.7405267
            ],
            [
              -43.3164507,
              -22.7403999
            ],
            [
              -43.3161658,
              -22.7403434
            ],
            [
              -43.3159538,
              -22.7401817
            ],
            [
              -43.3158968,
              -22.7400757
            ],
            [
              -43.3158768,
              -22.7400157
            ],
            [
              -43.3158604,
              -22.7400165
            ],
            [
              -43.3156412,
              -22.7399567
            ],
            [
              -43.3154743,
              -22.7399418
            ],
            [
              -43.3150086,
              -22.7394761
            ],
            [
              -43.3147845,
              -22.7395209
            ],
            [
              -43.3146575,
              -22.7393416
            ],
            [
              -43.3145972,
              -22.7392517
            ]
          ]
        ]
      },
      "properties": {
        "neighborhood": "Rua Júlio Barra"
      }
    }
  ]
}