{
  "type": "FeatureCollection",
  "features": [
    {
      "type": "Feature",
      "id": 42,
      "geometry": {
        "type": "Polygon",
        "coordinates": [
          [
            [
              -43.2815201,
              -22.7520459
            ],
            [
              -43.2801058,
              -22.7504987
            ],
            [
              -43.2778249,
              -22.7480033
            ],
            [
              -43.2780529,
              -22.7480762
            ],
            [
              -43.2782888,
              -22.7481516
            ],
            [
              -43.2786945,
              -22.7484616
            ],
            [
              -43.2803474,
              -22.7485197
            ],
            [
              -43.2809562,
              -22.7485486
            ],
            [
              -43.2815649,
              -22.7485775
            ],
            [
              -43.2838599,
              -22.7488755
            ],
            [
              -43.2838796,
              -22.7488581
            ],
            [
              -43.2838782,
              -22.7488762
            ],
            [
              -43.283587,
              -22.7528016
            ],
            [
              -43.2834729,
              -22.754029
            ],
            [
              -43.2815201,
              -22.7520459
            ]
          ]
        ]
      },
      "properties": {
        "neighborhood": "Rui Barbosa"
      }
    }
  ]
}