{
  "type": "FeatureCollection",
  "features": [
    {
      "type": "Feature",
      "id": 32,
      "geometry": {
        "type": "Polygon",
        "coordinates": [
          [
            [
              -43.3243278,
              -22.7423331
            ],
            [
              -43.324437,
              -22.7421352
            ],
            [
              -43.3244571,
              -22.7419898
            ],
            [
              -43.3244646,
              -22.7418017
            ],
            [
              -43.3244746,
              -22.7415233
            ],
            [
              -43.3245423,
              -22.741423
            ],
            [
              -43.3248934,
              -22.7410723
            ],
            [
              -43.3252269,
              -22.7407811
            ],
            [
              -43.3255905,
              -22.7405328
            ],
            [
              -43.3260494,
              -22.740247
            ],
            [
              -43.3261823,
              -22.7401291
            ],
            [
              -43.3263553,
              -22.7399009
            ],
            [
              -43.3265409,
              -22.7397154
            ],
            [
              -43.3267172,
              -22.7396489
            ],
            [
              -43.3268382,
              -22.7396338
            ],
            [
              -43.3269954,
              -22.739661
            ],
            [
              -43.3271223,
              -22.7397245
            ],
            [
              -43.3272071,
              -22.7398644
            ],
            [
              -43.3276824,
              -22.7405225
            ],
            [
              -43.3277844,
              -22.7406496
            ],
            [
              -43.3279205,
              -22.7407403
            ],
            [
              -43.3281049,
              -22.7408038
            ],
            [
              -43.32825,
              -22.7408219
            ],
            [
              -43.3284102,
              -22.7407978
            ],
            [
              -43.3285957,
              -22.7407572
            ],
            [
              -43.3286766,
              -22.740756
            ],
            [
              -43.3287098,
              -22.7412762
            ],
            [
              -43.3287101,
              -22.7412801
            ],
            [
              -43.3287119,
              -22.7413078
            ],
            [
              -43.3287137,
              -22.7413365
            ],
            [
              -43.3287182,
              -22.7414079
            ],
            [
              -43.3287472,
              -22.741861
            ],
            [
              -43.3287485,
              -22.7418805
            ],
            [
              -43.3287707,
              -22.7422285
            ],
            [
              -43.3288106,
              -22.7430224
            ],
            [
              -43.328839,
              -22.743587
            ],
            [
              -43.3287105,
              -22.7435013
            ],
            [
              -43.3285062,
              -22.7433933
            ],
            [
              -43.3282614,
              -22.7433259
            ],
            [
              -43.3280841,
              -22.7432314
            ],
            [
              -43.3280002,
              -22.7432761
            ],
            [
              -43.3277924,
              -22.74359
            ],
            [
              -43.327694,
              -22.7437048
            ],
            [
              -43.3274529,
              -22.7434623
            ],
            [
              -43.3269161,
              -22.7431023
            ],
            [
              -43.3268046,
              -22.7430171
            ],
            [
              -43.3267328,
              -22.7431295
            ],
            [
              -43.3255939,
              -22.7442623
            ],
            [
              -43.3254635,
              -22.744122
            ],
            [
              -43.3253027,
              -22.7439728
            ],
            [
              -43.3241258,
              -22.7426542
            ],
            [
              -43.3243278,
              -22.7423331
            ]
          ]
        ]
      },
      "properties": {
        "neighborhood": "Sossego"
      }
    }
  ]
}