{
  "type": "FeatureCollection",
  "features": [
    {
      "type": "Feature",
      "id": 85,
      "geometry": {
        "type": "Polygon",
        "coordinates": [
          [
            [
              -43.3089073,
              -22.7226379
            ],
            [
              -43.3109197,
              -22.7216345
            ],
            [
              -43.3118332,
              -22.7222845
            ],
            [
              -43.3112119,
              -22.7244119
            ],
            [
              -43.3094209,
              -22.7238959
            ],
            [
              -43.3088713,
              -22.723925
            ],
            [
              -43.3084681,
              -22.7240746
            ],
            [
              -43.3076641,
              -22.7246626
            ],
            [
              -43.3072398,
              -22.7252135
            ],
            [
              -43.3068453,
              -22.7257197
            ],
            [
              -43.3060265,
              -22.7270819
            ],
            [
              -43.3072696,
              -22.7278784
            ],
            [
              -43.307612,
              -22.7282952
            ],
            [
              -43.3076641,
              -22.7286302
            ],
            [
              -43.3075897,
              -22.72898
            ],
            [
              -43.3075599,
              -22.7291885
            ],
            [
              -43.3074557,
              -22.7293373
            ],
            [
              -43.3072473,
              -22.7295085
            ],
            [
              -43.3070314,
              -22.7295532
            ],
            [
              -43.3065625,
              -22.7295755
            ],
            [
              -43.3063094,
              -22.7296649
            ],
            [
              -43.3059372,
              -22.7298584
            ],
            [
              -43.3056692,
              -22.7300743
            ],
            [
              -43.3056171,
              -22.7303497
            ],
            [
              -43.3043293,
              -22.7307144
            ],
            [
              -43.3041656,
              -22.7305879
            ],
            [
              -43.3034435,
              -22.7308335
            ],
            [
              -43.3028852,
              -22.7296202
            ],
            [
              -43.3022302,
              -22.7298435
            ],
            [
              -43.3019101,
              -22.7290173
            ],
            [
              -43.3018431,
              -22.727856
            ],
            [
              -43.3012774,
              -22.7275732
            ],
            [
              -43.3012699,
              -22.7269925
            ],
            [
              -43.3028331,
              -22.7263449
            ],
            [
              -43.3026172,
              -22.7257569
            ],
            [
              -43.3069421,
              -22.7237322
            ],
            [
              -43.3089073,
              -22.7226379
            ]
          ]
        ]
      },
      "properties": {
        "neighborhood": "Suo Bento"
      }
    }
  ]
}