{
  "type": "FeatureCollection",
  "features": [
    {
      "type": "Feature",
      "id": 33,
      "geometry": {
        "type": "Polygon",
        "coordinates": [
          [
            [
              -43.2297584,
              -22.6104156
            ],
            [
              -43.2298153,
              -22.6101762
            ],
            [
              -43.2297836,
              -22.6098117
            ],
            [
              -43.2298945,
              -22.6096691
            ],
            [
              -43.230259,
              -22.6098117
            ],
            [
              -43.2302696,
              -22.6095001
            ],
            [
              -43.2305232,
              -22.6091673
            ],
            [
              -43.2308295,
              -22.609125
            ],
            [
              -43.2309458,
              -22.6089031
            ],
            [
              -43.2312363,
              -22.6085756
            ],
            [
              -43.2315216,
              -22.6085862
            ],
            [
              -43.2316651,
              -22.6088761
            ],
            [
              -43.2319017,
              -22.6087288
            ],
            [
              -43.232061,
              -22.608555
            ],
            [
              -43.2322034,
              -22.6083137
            ],
            [
              -43.2323144,
              -22.6081688
            ],
            [
              -43.2324399,
              -22.6080578
            ],
            [
              -43.2325565,
              -22.6079716
            ],
            [
              -43.2326362,
              -22.60805
            ],
            [
              -43.2327181,
              -22.6081596
            ],
            [
              -43.2327498,
              -22.608326
            ],
            [
              -43.2326045,
              -22.6084567
            ],
            [
              -43.232454,
              -22.6085228
            ],
            [
              -43.2322559,
              -22.6087143
            ],
            [
              -43.2314569,
              -22.6093733
            ],
            [
              -43.2314001,
              -22.6095542
            ],
            [
              -43.2312205,
              -22.6101564
            ],
            [
              -43.2313063,
              -22.6103941
            ],
            [
              -43.2315269,
              -22.6106319
            ],
            [
              -43.2326745,
              -22.6110082
            ],
            [
              -43.2323747,
              -22.611436
            ],
            [
              -43.2320896,
              -22.6113266
            ],
            [
              -43.2306731,
              -22.6107829
            ],
            [
              -43.2297584,
              -22.6104156
            ]
          ]
        ]
      },
      "properties": {
        "neighborhood": "Travessa Soledade"
      }
    }
  ]
}