{
  "type": "FeatureCollection",
  "features": [
    {
      "type": "Feature",
      "id": 29,
      "geometry": {
        "type": "MultiPolygon",
        "coordinates": [
          [
            [
              [
                -43.3079553,
                -22.7953587
              ],
              [
                -43.3077873,
                -22.7953182
              ],
              [
                -43.3076599,
                -22.7952545
              ],
              [
                -43.3075325,
                -22.7951618
              ],
              [
                -43.3074573,
                -22.795046
              ],
              [
                -43.3074085,
                -22.7949052
              ],
              [
                -43.3074051,
                -22.7948954
              ],
              [
                -43.3073878,
                -22.7947738
              ],
              [
                -43.3073918,
                -22.7947402
              ],
              [
                -43.3073996,
                -22.794674
              ],
              [
                -43.3075469,
                -22.794562
              ],
              [
                -43.3076314,
                -22.7945152
              ],
              [
                -43.3077425,
                -22.7944538
              ],
              [
                -43.3077494,
                -22.79445
              ],
              [
                -43.3079416,
                -22.7943672
              ],
              [
                -43.3079596,
                -22.7943595
              ],
              [
                -43.3081124,
                -22.7942793
              ],
              [
                -43.3082763,
                -22.7944563
              ],
              [
                -43.3084505,
                -22.79468
              ],
              [
                -43.3084637,
                -22.7946969
              ],
              [
                -43.3081061,
                -22.7949306
              ],
              [
                -43.3081353,
                -22.7949585
              ],
              [
                -43.3082189,
                -22.7950382
              ],
              [
                -43.3082426,
                -22.7950607
              ],
              [
                -43.3084034,
                -22.795214
              ],
              [
                -43.3084357,
                -22.7952448
              ],
              [
                -43.3082043,
                -22.7953297
              ],
              [
                -43.3079553,
                -22.7953587
              ]
            ]
          ],
          [
            [
              [
                -43.2957952,
                -22.7886424
              ],
              [
                -43.2956286,
                -22.7885902
              ],
              [
                -43.2955071,
                -22.7885397
              ],
              [
                -43.2953701,
                -22.7887782
              ],
              [
                -43.2952151,
                -22.7887018
              ],
              [
                -43.2950496,
                -22.7886201
              ],
              [
                -43.2948227,
                -22.7885082
              ],
              [
                -43.2948104,
                -22.7885022
              ],
              [
                -43.2942378,
                -22.7882226
              ],
              [
                -43.2939764,
                -22.788095
              ],
              [
                -43.2938417,
                -22.7880004
              ],
              [
                -43.2937186,
                -22.7879263
              ],
              [
                -43.2936064,
                -22.7878671
              ],
              [
                -43.2933603,
                -22.7877372
              ],
              [
                -43.2930687,
                -22.7875834
              ],
              [
                -43.2927985,
                -22.7874408
              ],
              [
                -43.2925907,
                -22.7873427
              ],
              [
                -43.2924137,
                -22.7872543
              ],
              [
                -43.292527,
                -22.7872389
              ],
              [
                -43.2927914,
                -22.7871593
              ],
              [
                -43.2935829,
                -22.7864362
              ],
              [
                -43.2941415,
                -22.7859805
              ],
              [
                -43.2946967,
                -22.7854996
              ],
              [
                -43.2947744,
                -22.7854776
              ],
              [
                -43.2948554,
                -22.7854911
              ],
              [
                -43.2960215,
                -22.7860447
              ],
              [
                -43.2967261,
                -22.7863766
              ],
              [
                -43.2969237,
                -22.7863091
              ],
              [
                -43.2969766,
                -22.7862894
              ],
              [
                -43.2976514,
                -22.7866241
              ],
              [
                -43.2983874,
                -22.7869673
              ],
              [
                -43.2985445,
                -22.7870405
              ],
              [
                -43.2978446,
                -22.7884182
              ],
              [
                -43.2977737,
                -22.7884935
              ],
              [
                -43.2976962,
                -22.7885467
              ],
              [
                -43.2976104,
                -22.788758
              ],
              [
                -43.2975034,
                -22.7890216
              ],
              [
                -43.2973165,
                -22.788845
              ],
              [
                -43.2971441,
                -22.7890548
              ],
              [
                -43.2970943,
                -22.7890139
              ],
              [
                -43.2969346,
                -22.7889386
              ],
              [
                -43.2967313,
                -22.7888824
              ],
              [
                -43.296275,
                -22.7887509
              ],
              [
                -43.2959871,
                -22.7886993
              ],
              [
                -43.2959635,
                -22.7886923
              ],
              [
                -43.2957952,
                -22.7886424
              ]
            ]
          ]
        ]
      },
      "properties": {
        "neighborhood": "Vila Operária"
      }
    }
  ]
}