{
  "type": "FeatureCollection",
  "features": [
    {
      "type": "Feature",
      "id": 28,
      "geometry": {
        "type": "Polygon",
        "coordinates": [
          [
            [
              -43.2836273,
              -22.7064047
            ],
            [
              -43.2836405,
              -22.7064123
            ],
            [
              -43.2836191,
              -22.7064552
            ],
            [
              -43.2835813,
              -22.706516
            ],
            [
              -43.283333,
              -22.7066997
            ],
            [
              -43.2832713,
              -22.7066848
            ],
            [
              -43.282754,
              -22.7065076
            ],
            [
              -43.2825007,
              -22.7066683
            ],
            [
              -43.2819753,
              -22.7068737
            ],
            [
              -43.2816553,
              -22.7067567
            ],
            [
              -43.2815648,
              -22.7067531
            ],
            [
              -43.281377,
              -22.7066412
            ],
            [
              -43.2814678,
              -22.7065292
            ],
            [
              -43.2816979,
              -22.7062751
            ],
            [
              -43.2821082,
              -22.7058573
            ],
            [
              -43.282411,
              -22.7055673
            ],
            [
              -43.2824434,
              -22.7055546
            ],
            [
              -43.2826415,
              -22.7056876
            ],
            [
              -43.2834228,
              -22.7062601
            ],
            [
              -43.2836273,
              -22.7064047
            ]
          ]
        ]
      },
      "properties": {
        "neighborhood": "Vila Actura"
      }
    }
  ]
}