{
  "type": "FeatureCollection",
  "features": [
    {
      "type": "Feature",
      "id": 21,
      "geometry": {
        "type": "Polygon",
        "coordinates": [
          [
            [
              -43.3119699,
              -22.7954992
            ],
            [
              -43.3119365,
              -22.7954937
            ],
            [
              -43.3115739,
              -22.7954348
            ],
            [
              -43.311427,
              -22.7954193
            ],
            [
              -43.3114197,
              -22.7954185
            ],
            [
              -43.3114125,
              -22.7954177
            ],
            [
              -43.3115403,
              -22.7951108
            ],
            [
              -43.3117035,
              -22.7948616
            ],
            [
              -43.311728,
              -22.7948243
            ],
            [
              -43.3117768,
              -22.7947674
            ],
            [
              -43.3119762,
              -22.794535
            ],
            [
              -43.3126568,
              -22.7939404
            ],
            [
              -43.3129866,
              -22.7936523
            ],
            [
              -43.313739,
              -22.7929414
            ],
            [
              -43.3138148,
              -22.7928697
            ],
            [
              -43.3140898,
              -22.7925902
            ],
            [
              -43.314207,
              -22.7924144
            ],
            [
              -43.3142889,
              -22.7922639
            ],
            [
              -43.3143298,
              -22.7921886
            ],
            [
              -43.3143407,
              -22.7921684
            ],
            [
              -43.3143707,
              -22.7921133
            ],
            [
              -43.31442,
              -22.7921845
            ],
            [
              -43.3143643,
              -22.7922984
            ],
            [
              -43.3142768,
              -22.7924761
            ],
            [
              -43.3142185,
              -22.7925848
            ],
            [
              -43.314192,
              -22.7926643
            ],
            [
              -43.3141973,
              -22.7927968
            ],
            [
              -43.3142405,
              -22.7929581
            ],
            [
              -43.3143271,
              -22.793046
            ],
            [
              -43.3145763,
              -22.7932952
            ],
            [
              -43.3148144,
              -22.79353
            ],
            [
              -43.3153983,
              -22.7929942
            ],
            [
              -43.315666,
              -22.7932157
            ],
            [
              -43.316106,
              -22.7935869
            ],
            [
              -43.3172798,
              -22.7945864
            ],
            [
              -43.3175066,
              -22.7947795
            ],
            [
              -43.3183581,
              -22.7956034
            ],
            [
              -43.318312,
              -22.7956379
            ],
            [
              -43.3182912,
              -22.7956535
            ],
            [
              -43.3182197,
              -22.7957018
            ],
            [
              -43.3181029,
              -22.7958099
            ],
            [
              -43.3179865,
              -22.7956958
            ],
            [
              -43.3178776,
              -22.7958177
            ],
            [
              -43.3177232,
              -22.7960038
            ],
            [
              -43.317406,
              -22.795753
            ],
            [
              -43.3172083,
              -22.7955834
            ],
            [
              -43.3169997,
              -22.7954119
            ],
            [
              -43.3168138,
              -22.7952509
            ],
            [
              -43.3162626,
              -22.7958879
            ],
            [
              -43.3160652,
              -22.7960462
            ],
            [
              -43.3158623,
              -22.7960518
            ],
            [
              -43.3156895,
              -22.7960161
            ],
            [
              -43.3152636,
              -22.7959498
            ],
            [
              -43.3147838,
              -22.7958752
            ],
            [
              -43.3142959,
              -22.7958205
            ],
            [
              -43.3128116,
              -22.7956215
            ],
            [
              -43.3119699,
              -22.7954992
            ]
          ]
        ]
      },
      "properties": {
        "neighborhood": "Vila Ideal"
      }
    }
  ]
}