{
  "type": "FeatureCollection",
  "features": [
    {
      "type": "Feature",
      "id": 51,
      "geometry": {
        "type": "Polygon",
        "coordinates": [
          [
            [
              -43.2858194,
              -22.7974248
            ],
            [
              -43.2857496,
              -22.7973714
            ],
            [
              -43.2855692,
              -22.7972147
            ],
            [
              -43.2854315,
              -22.7971245
            ],
            [
              -43.2852416,
              -22.7970201
            ],
            [
              -43.2851419,
              -22.7969441
            ],
            [
              -43.2849614,
              -22.7968254
            ],
            [
              -43.2847098,
              -22.796588
            ],
            [
              -43.2845151,
              -22.7964455
            ],
            [
              -43.2840071,
              -22.7960372
            ],
            [
              -43.2835845,
              -22.7957286
            ],
            [
              -43.2832806,
              -22.7954816
            ],
            [
              -43.2831702,
              -22.7954247
            ],
            [
              -43.282858,
              -22.7951778
            ],
            [
              -43.2826348,
              -22.7950068
            ],
            [
              -43.2818181,
              -22.7943563
            ],
            [
              -43.2814766,
              -22.7940961
            ],
            [
              -43.2826024,
              -22.7936757
            ],
            [
              -43.2834549,
              -22.7930954
            ],
            [
              -43.2861102,
              -22.7909222
            ],
            [
              -43.2863687,
              -22.7914377
            ],
            [
              -43.2875593,
              -22.7938124
            ],
            [
              -43.2879662,
              -22.7946311
            ],
            [
              -43.2871699,
              -22.7950217
            ],
            [
              -43.2873055,
              -22.7952766
            ],
            [
              -43.2875147,
              -22.7956698
            ],
            [
              -43.2876026,
              -22.7960169
            ],
            [
              -43.2878317,
              -22.795868
            ],
            [
              -43.2881379,
              -22.7956502
            ],
            [
              -43.2882973,
              -22.7959484
            ],
            [
              -43.2883855,
              -22.7961519
            ],
            [
              -43.2876191,
              -22.7968719
            ],
            [
              -43.2876326,
              -22.7969526
            ],
            [
              -43.2877682,
              -22.7972102
            ],
            [
              -43.2878984,
              -22.7973052
            ],
            [
              -43.2880041,
              -22.7973079
            ],
            [
              -43.2883513,
              -22.7976225
            ],
            [
              -43.2883811,
              -22.7976713
            ],
            [
              -43.2880692,
              -22.7979479
            ],
            [
              -43.288015,
              -22.7980781
            ],
            [
              -43.288015,
              -22.798211
            ],
            [
              -43.2882739,
              -22.798547
            ],
            [
              -43.2883444,
              -22.7985708
            ],
            [
              -43.2886885,
              -22.7984055
            ],
            [
              -43.2887866,
              -22.798585
            ],
            [
              -43.288788,
              -22.7985874
            ],
            [
              -43.2888412,
              -22.7989208
            ],
            [
              -43.288886,
              -22.7993028
            ],
            [
              -43.2889985,
              -22.8002616
            ],
            [
              -43.2885615,
              -22.8005427
            ],
            [
              -43.287986,
              -22.7994049
            ],
            [
              -43.2878217,
              -22.7992355
            ],
            [
              -43.2876569,
              -22.7990248
            ],
            [
              -43.2874541,
              -22.7987652
            ],
            [
              -43.2870323,
              -22.7983271
            ],
            [
              -43.2867565,
              -22.7980838
            ],
            [
              -43.2862859,
              -22.7977349
            ],
            [
              -43.2861318,
              -22.7976214
            ],
            [
              -43.2858641,
              -22.7974753
            ],
            [
              -43.2858194,
              -22.7974248
            ]
          ]
        ]
      },
      "properties": {
        "neighborhood": "Vila Beira Mar"
      }
    }
  ]
}