{"type": "FeatureCollection", "features": [{"type": "Feature", "properties": {"id": "3301702", "name": "Duque de Caxias", "description": "Duque de Caxias"}, "geometry": {"type": "Polygon", "coordinates": [[[-43.238011609, -22.5099262583], [-43.2326497184, -22.5187863096], [-43.2263450714, -22.5161843193], [-43.2212592168, -22.5207544206], [-43.2257376609, -22.522673319], [-43.2263218702, -22.5285177366], [-43.2334054395, -22.5223232958], [-43.2460620047, -22.5264498935], [-43.2525724464, -22.5425012943], [-43.2582109044, -22.5557065167], [-43.2603730399, -22.5607697047], [-43.2547025494, -22.5736638102], [-43.2514524686, -22.5735742132], [-43.249617087, -22.5728617478], [-43.2248707267, -22.5632499126], [-43.2238323073, -22.5652984653], [-43.2051875486, -22.6020605713], [-43.2020360952, -22.6082715939], [-43.1944249224, -22.6222989261], [-43.1949771727, -22.6288814201], [-43.2110668263, -22.6422662504], [-43.2195282936, -22.6606052156], [-43.2244842907, -22.6747742081], [-43.2189238455, -22.6803278014], [-43.2179116354, -22.6873116038], [-43.2154506708, -22.7006329379], [-43.2142586482, -22.7070802841], [-43.2180410786, -22.7068841612], [-43.2241476807, -22.7148007037], [-43.2207277724, -22.7239656479], [-43.2151102275, -22.7269639817], [-43.211900715, -22.7301661283], [-43.2160386159, -22.735462877], [-43.2270148643, -22.7398313901], [-43.235596938, -22.7351228819], [-43.2327329418, -22.7398558278], [-43.2392315907, -22.7408577514], [-43.2443857202, -22.7462672586], [-43.242399884, -22.7497841954], [-43.2528428583, -22.756730466], [-43.2588453161, -22.7553896533], [-43.2539609237, -22.7591318243], [-43.2717075346, -22.7717465731], [-43.2705076597, -22.7739683215], [-43.2778186989, -22.7805367042], [-43.2767609423, -22.785257533], [-43.2882057524, -22.800316501], [-43.287760595, -22.8079219271], [-43.2907665341, -22.809539595], [-43.2993397754, -22.8057108394], [-43.307063888, -22.7979340592], [-43.3135662697, -22.8018978064], [-43.3201231858, -22.7995123664], [-43.3272482048, -22.8017754594], [-43.3301530938, -22.8015926548], [-43.3304171568, -22.7559587629], [-43.3303891141, -22.7558311263], [-43.3206454492, -22.711394181], [-43.3200912508, -22.709030233], [-43.3265430662, -22.7057878879], [-43.3282365778, -22.6952737162], [-43.3504808237, -22.6976641153], [-43.3651171736, -22.6850372943], [-43.3650727486, -22.6843688301], [-43.365509119, -22.6795137589], [-43.3748738867, -22.6720407268], [-43.3949808432, -22.6638469723], [-43.4012307653, -22.6560976285], [-43.3919576469, -22.6415075399], [-43.3825138601, -22.6307249765], [-43.382648365, -22.6217120461], [-43.4012306941, -22.6105846491], [-43.4104301756, -22.6110314986], [-43.4147661963, -22.6005980648], [-43.4146231095, -22.5930047459], [-43.4030940834, -22.5874005959], [-43.3878606264, -22.5716602059], [-43.3920444689, -22.5557111925], [-43.4090732315, -22.5448537095], [-43.4039634745, -22.5415951412], [-43.4038177381, -22.5345185603], [-43.3842402322, -22.5299796824], [-43.378334849, -22.5225801943], [-43.3745437636, -22.5201412963], [-43.3669604636, -22.5263371752], [-43.355850876, -22.5216881566], [-43.3315436435, -22.5187265521], [-43.33176195, -22.512023715], [-43.3000671152, -22.4830707908], [-43.2962896658, -22.475258583], [-43.275625161, -22.4878926972], [-43.238011609, -22.5099262583]]]}}]}